{
"type": "FeatureCollection",
"name": "Pinjai River-68",
"features": [
{ "type": "Feature", "properties": { "objectid": 20165, "rivname": "Pinjai", "rilcode": 3, "st_length_": 68.9304, "bacode": 14, "ba_name": "West flowing rivers from Tapi to Tadri", "sub_basin": "Bhatsol and others", "remarks": "ok" }, "geometry": { "type": "LineString", "coordinates": [ [ 73.4151336, 19.8093274, 0.0 ], [ 73.4148768, 19.8099965, 0.0 ], [ 73.4147881, 19.8101351, 0.0 ], [ 73.4146285, 19.8102363, 0.0 ], [ 73.4146271, 19.8103086, 0.0 ], [ 73.4145093, 19.8104647, 0.0 ], [ 73.4140343, 19.8108136, 0.0 ], [ 73.4137402, 19.8109531, 0.0 ], [ 73.4134329, 19.8110335, 0.0 ], [ 73.412964, 19.8110705, 0.0 ], [ 73.4126256, 19.8110329, 0.0 ], [ 73.4114933, 19.8110401, 0.0 ], [ 73.410954, 19.8110125, 0.0 ], [ 73.4102502, 19.8108508, 0.0 ], [ 73.4095061, 19.8107925, 0.0 ], [ 73.4089791, 19.8106341, 0.0 ], [ 73.4078078, 19.8104371, 0.0 ], [ 73.4072543, 19.8104047, 0.0 ], [ 73.4067606, 19.8104864, 0.0 ], [ 73.4065344, 19.8105773, 0.0 ], [ 73.4062795, 19.8106633, 0.0 ], [ 73.406035, 19.8107086, 0.0 ], [ 73.4056193, 19.8107104, 0.0 ], [ 73.40414, 19.81063, 0.0 ], [ 73.4036179, 19.8107021, 0.0 ], [ 73.4028544, 19.8109012, 0.0 ], [ 73.4015214, 19.811158, 0.0 ], [ 73.4011358, 19.8113319, 0.0 ], [ 73.4006551, 19.8117213, 0.0 ], [ 73.3998852, 19.811762, 0.0 ], [ 73.399124, 19.8116038, 0.0 ], [ 73.3983142, 19.81149, 0.0 ], [ 73.3976251, 19.811306, 0.0 ], [ 73.3974082, 19.8111665, 0.0 ], [ 73.3973843, 19.8109265, 0.0 ], [ 73.3975288, 19.8106216, 0.0 ], [ 73.3980174, 19.8100742, 0.0 ], [ 73.3986455, 19.8094704, 0.0 ], [ 73.398677, 19.8093218, 0.0 ], [ 73.39863, 19.8090452, 0.0 ], [ 73.3984515, 19.8090278, 0.0 ], [ 73.3978774, 19.8090328, 0.0 ], [ 73.3974381, 19.8090627, 0.0 ], [ 73.3971935, 19.8091424, 0.0 ], [ 73.396962, 19.8093539, 0.0 ], [ 73.3967958, 19.8095058, 0.0 ], [ 73.3966329, 19.8096557, 0.0 ], [ 73.396484, 19.8100277, 0.0 ], [ 73.3964198, 19.8109329, 0.0 ], [ 73.3964108, 19.8120988, 0.0 ], [ 73.3961758, 19.8126948, 0.0 ], [ 73.3960896, 19.8127577, 0.0 ], [ 73.3958051, 19.8129656, 0.0 ], [ 73.3953531, 19.8130379, 0.0 ], [ 73.3945395, 19.8129656, 0.0 ], [ 73.3918663, 19.812598, 0.0 ], [ 73.3914322, 19.8125579, 0.0 ], [ 73.390996, 19.8125176, 0.0 ], [ 73.3909074, 19.8125094, 0.0 ], [ 73.3892842, 19.8124127, 0.0 ], [ 73.3886285, 19.8125026, 0.0 ], [ 73.3884623, 19.8125254, 0.0 ], [ 73.3877111, 19.8127799, 0.0 ], [ 73.3871084, 19.8129841, 0.0 ], [ 73.3862462, 19.813129, 0.0 ], [ 73.3839698, 19.8136607, 0.0 ], [ 73.3833601, 19.8136645, 0.0 ], [ 73.3827046, 19.8136687, 0.0 ], [ 73.3823309, 19.813664, 0.0 ], [ 73.3814153, 19.8136526, 0.0 ], [ 73.3793286, 19.8133883, 0.0 ], [ 73.3777781, 19.8129294, 0.0 ], [ 73.3776198, 19.8128787, 0.0 ], [ 73.3774777, 19.8128332, 0.0 ], [ 73.3768822, 19.8126426, 0.0 ], [ 73.3758559, 19.8122982, 0.0 ], [ 73.3754769, 19.812195, 0.0 ], [ 73.3750519, 19.8123097, 0.0 ], [ 73.3742479, 19.8132045, 0.0 ], [ 73.3738574, 19.8135946, 0.0 ], [ 73.3734898, 19.8136978, 0.0 ], [ 73.3733254, 19.8136925, 0.0 ], [ 73.3731338, 19.8136863, 0.0 ], [ 73.372927, 19.8135372, 0.0 ], [ 73.372571, 19.8132275, 0.0 ], [ 73.3723298, 19.8125047, 0.0 ], [ 73.3720886, 19.8117132, 0.0 ], [ 73.3714235, 19.8107991, 0.0 ], [ 73.3710643, 19.8104763, 0.0 ], [ 73.3707195, 19.8102108, 0.0 ], [ 73.3700586, 19.8100817, 0.0 ], [ 73.3695055, 19.8100673, 0.0 ], [ 73.3690385, 19.8102252, 0.0 ], [ 73.3687368, 19.8106987, 0.0 ], [ 73.3682252, 19.811827, 0.0 ], [ 73.3678875, 19.8122217, 0.0 ], [ 73.3676289, 19.8123723, 0.0 ], [ 73.3674637, 19.8124154, 0.0 ], [ 73.3672841, 19.8123867, 0.0 ], [ 73.3670901, 19.8122862, 0.0 ], [ 73.3669249, 19.8120853, 0.0 ], [ 73.3663857, 19.8109358, 0.0 ], [ 73.3662423, 19.8100973, 0.0 ], [ 73.3661377, 19.809728, 0.0 ], [ 73.3660465, 19.8094063, 0.0 ], [ 73.3659352, 19.8090133, 0.0 ], [ 73.3657304, 19.808727, 0.0 ], [ 73.365413, 19.808594, 0.0 ], [ 73.3649113, 19.8086758, 0.0 ], [ 73.3646491, 19.8088804, 0.0 ], [ 73.3645836, 19.8089315, 0.0 ], [ 73.3643372, 19.8100389, 0.0 ], [ 73.3642553, 19.8107957, 0.0 ], [ 73.364059, 19.8113617, 0.0 ], [ 73.3634264, 19.8118383, 0.0 ], [ 73.3628918, 19.8122412, 0.0 ], [ 73.3620419, 19.8125991, 0.0 ], [ 73.3616631, 19.8126298, 0.0 ], [ 73.3614276, 19.8124968, 0.0 ], [ 73.3604609, 19.8114992, 0.0 ], [ 73.3600793, 19.8108493, 0.0 ], [ 73.3594882, 19.8098425, 0.0 ], [ 73.3585463, 19.8088915, 0.0 ], [ 73.3580548, 19.8084927, 0.0 ], [ 73.3575019, 19.8084211, 0.0 ], [ 73.3573476, 19.8085394, 0.0 ], [ 73.3570616, 19.8087585, 0.0 ], [ 73.3565497, 19.8096176, 0.0 ], [ 73.3561397, 19.8103959, 0.0 ], [ 73.355708, 19.8112155, 0.0 ], [ 73.355278, 19.8115632, 0.0 ], [ 73.354848, 19.811645, 0.0 ], [ 73.3541415, 19.8115836, 0.0 ], [ 73.3529306, 19.8107924, 0.0 ], [ 73.3522037, 19.8100458, 0.0 ], [ 73.3510758, 19.8091946, 0.0 ], [ 73.3505704, 19.8087992, 0.0 ], [ 73.3504615, 19.808714, 0.0 ], [ 73.3502837, 19.808561, 0.0 ], [ 73.3502539, 19.8085067, 0.0 ], [ 73.3496061, 19.8073242, 0.0 ], [ 73.3481294, 19.8066802, 0.0 ], [ 73.3476902, 19.8066697, 0.0 ], [ 73.3464268, 19.8066395, 0.0 ], [ 73.3440721, 19.8065832, 0.0 ], [ 73.3437823, 19.8065763, 0.0 ], [ 73.3429779, 19.8065457, 0.0 ], [ 73.341863, 19.8065033, 0.0 ], [ 73.3415984, 19.8064932, 0.0 ], [ 73.3410576, 19.8060154, 0.0 ], [ 73.3398903, 19.8038856, 0.0 ], [ 73.3388712, 19.8011642, 0.0 ], [ 73.3385809, 19.7999203, 0.0 ], [ 73.3384791, 19.7994841, 0.0 ], [ 73.3382199, 19.7983737, 0.0 ], [ 73.3381159, 19.7970442, 0.0 ], [ 73.33738, 19.7964401, 0.0 ], [ 73.3365976, 19.7957977, 0.0 ], [ 73.3350168, 19.7950499, 0.0 ], [ 73.3333737, 19.794759, 0.0 ], [ 73.3329369, 19.7949045, 0.0 ], [ 73.3323961, 19.795777, 0.0 ], [ 73.3321049, 19.7971481, 0.0 ], [ 73.3321865, 19.8016429, 0.0 ], [ 73.3323113, 19.8028478, 0.0 ], [ 73.3321449, 19.8036164, 0.0 ], [ 73.3317289, 19.8042189, 0.0 ], [ 73.3310841, 19.8045512, 0.0 ], [ 73.3303353, 19.8046759, 0.0 ], [ 73.3280266, 19.8045305, 0.0 ], [ 73.3277236, 19.8045008, 0.0 ], [ 73.3234856, 19.8040858, 0.0 ], [ 73.3220696, 19.8039471, 0.0 ], [ 73.3212376, 19.8036562, 0.0 ], [ 73.3202393, 19.8031369, 0.0 ], [ 73.3198649, 19.8021813, 0.0 ], [ 73.3198233, 19.8016204, 0.0 ], [ 73.3199897, 19.8011634, 0.0 ], [ 73.3203433, 19.8008725, 0.0 ], [ 73.3210089, 19.8005194, 0.0 ], [ 73.3219032, 19.7999377, 0.0 ], [ 73.32338, 19.7995845, 0.0 ], [ 73.3245448, 19.7992314, 0.0 ], [ 73.3251895, 19.7988159, 0.0 ], [ 73.3253767, 19.7982965, 0.0 ], [ 73.3252103, 19.7978187, 0.0 ], [ 73.3234216, 19.7970916, 0.0 ], [ 73.3213255, 19.7965597, 0.0 ], [ 73.3208841, 19.7964476, 0.0 ], [ 73.3201145, 19.7964061, 0.0 ], [ 73.3191369, 19.7969047, 0.0 ], [ 73.3177641, 19.7977149, 0.0 ], [ 73.3169872, 19.7992377, 0.0 ], [ 73.3165201, 19.8046993, 0.0 ], [ 73.316391, 19.8062092, 0.0 ], [ 73.316385, 19.806279, 0.0 ], [ 73.3163685, 19.8066752, 0.0 ], [ 73.3160875, 19.807319, 0.0 ], [ 73.3155752, 19.8077317, 0.0 ], [ 73.3149967, 19.8081114, 0.0 ], [ 73.3113721, 19.8086601, 0.0 ], [ 73.3102977, 19.8086601, 0.0 ], [ 73.3099941, 19.8087106, 0.0 ], [ 73.3096036, 19.8087756, 0.0 ], [ 73.3091738, 19.8090398, 0.0 ], [ 73.3088763, 19.8095515, 0.0 ], [ 73.3089554, 19.8111716, 0.0 ], [ 73.3088893, 19.8118484, 0.0 ], [ 73.3084761, 19.8123106, 0.0 ], [ 73.3080959, 19.8124262, 0.0 ], [ 73.3071869, 19.8122281, 0.0 ], [ 73.3062448, 19.8114357, 0.0 ], [ 73.3056713, 19.8112266, 0.0 ], [ 73.3052035, 19.811056, 0.0 ], [ 73.3045259, 19.8110725, 0.0 ], [ 73.3035838, 19.8114192, 0.0 ], [ 73.3029392, 19.8115348, 0.0 ], [ 73.3027101, 19.8115114, 0.0 ], [ 73.3019156, 19.8114306, 0.0 ], [ 73.3016275, 19.8114013, 0.0 ], [ 73.3010388, 19.8112932, 0.0 ], [ 73.2994156, 19.8109953, 0.0 ], [ 73.2985699, 19.81084, 0.0 ], [ 73.2972589, 19.8103902, 0.0 ], [ 73.2956101, 19.8098244, 0.0 ], [ 73.29506, 19.8096356, 0.0 ], [ 73.2948532, 19.8094808, 0.0 ], [ 73.2947395, 19.8092949, 0.0 ], [ 73.2946878, 19.8089852, 0.0 ], [ 73.2947602, 19.8086754, 0.0 ], [ 73.2951565, 19.8079055, 0.0 ], [ 73.2967952, 19.8057959, 0.0 ], [ 73.2974462, 19.8051457, 0.0 ], [ 73.2979502, 19.8044116, 0.0 ], [ 73.2979712, 19.8039502, 0.0 ], [ 73.2977219, 19.8036834, 0.0 ], [ 73.2973832, 19.803321, 0.0 ], [ 73.2965222, 19.8027547, 0.0 ], [ 73.2951363, 19.8021045, 0.0 ], [ 73.2929523, 19.8018318, 0.0 ], [ 73.2917973, 19.8019354, 0.0 ], [ 73.2913144, 19.8019787, 0.0 ], [ 73.2892953, 19.8022753, 0.0 ], [ 73.287319, 19.8025657, 0.0 ], [ 73.2868988, 19.8026333, 0.0 ], [ 73.28517, 19.8029114, 0.0 ], [ 73.2841901, 19.8030691, 0.0 ], [ 73.2832451, 19.8028383, 0.0 ], [ 73.2829301, 19.8026915, 0.0 ], [ 73.2826151, 19.8021252, 0.0 ], [ 73.2828881, 19.8010346, 0.0 ], [ 73.2838962, 19.7990112, 0.0 ], [ 73.2849461, 19.7972494, 0.0 ], [ 73.2853192, 19.7966327, 0.0 ], [ 73.2855551, 19.7962427, 0.0 ], [ 73.2857441, 19.7954247, 0.0 ], [ 73.2856811, 19.7948584, 0.0 ], [ 73.2853031, 19.794397, 0.0 ], [ 73.2844842, 19.7942292, 0.0 ], [ 73.2831612, 19.7947745, 0.0 ], [ 73.2824418, 19.7951659, 0.0 ], [ 73.280574, 19.7961822, 0.0 ], [ 73.2795936, 19.796835, 0.0 ], [ 73.279125, 19.797147, 0.0 ], [ 73.2775667, 19.7988099, 0.0 ], [ 73.2772727, 19.80032, 0.0 ], [ 73.2772359, 19.8005026, 0.0 ], [ 73.2770259, 19.8015463, 0.0 ], [ 73.2766423, 19.803453, 0.0 ], [ 73.2762028, 19.806804, 0.0 ], [ 73.2757562, 19.8080502, 0.0 ], [ 73.2753885, 19.8085881, 0.0 ], [ 73.2748413, 19.8090084, 0.0 ], [ 73.2737951, 19.809812, 0.0 ], [ 73.2724554, 19.8104679, 0.0 ], [ 73.2712997, 19.8105729, 0.0 ], [ 73.2702884, 19.8105597, 0.0 ], [ 73.2694609, 19.8102843, 0.0 ], [ 73.2673464, 19.8091693, 0.0 ], [ 73.2652113, 19.8074544, 0.0 ], [ 73.2646493, 19.807279, 0.0 ], [ 73.2642044, 19.8073024, 0.0 ], [ 73.2636893, 19.8075831, 0.0 ], [ 73.2635281, 19.8077455, 0.0 ], [ 73.2625386, 19.8087421, 0.0 ], [ 73.2618128, 19.8092333, 0.0 ], [ 73.2613836, 19.8093261, 0.0 ], [ 73.2611103, 19.8093853, 0.0 ], [ 73.2607591, 19.8093385, 0.0 ], [ 73.2601034, 19.8090228, 0.0 ], [ 73.2593424, 19.8090462, 0.0 ], [ 73.2587102, 19.8090345, 0.0 ], [ 73.2578135, 19.8095134, 0.0 ], [ 73.2570626, 19.8099134, 0.0 ], [ 73.2563267, 19.8101073, 0.0 ], [ 73.2558611, 19.81023, 0.0 ], [ 73.2547932, 19.8102467, 0.0 ], [ 73.2540422, 19.80978, 0.0 ], [ 73.2535156, 19.8093879, 0.0 ], [ 73.2531245, 19.8090967, 0.0 ], [ 73.2528575, 19.8084134, 0.0 ], [ 73.2528029, 19.8073871, 0.0 ], [ 73.2528179, 19.8065341, 0.0 ], [ 73.2527866, 19.8059758, 0.0 ], [ 73.2526705, 19.8054701, 0.0 ], [ 73.2525938, 19.8051365, 0.0 ], [ 73.2519376, 19.8033549, 0.0 ], [ 73.2517182, 19.8029018, 0.0 ], [ 73.2512893, 19.8020159, 0.0 ], [ 73.2506915, 19.8013979, 0.0 ], [ 73.2503489, 19.8010439, 0.0 ], [ 73.2498445, 19.8007278, 0.0 ], [ 73.248094, 19.8004611, 0.0 ], [ 73.2470556, 19.8000857, 0.0 ], [ 73.2469381, 19.8000663, 0.0 ], [ 73.2453163, 19.7997976, 0.0 ], [ 73.2449688, 19.79974, 0.0 ], [ 73.2435842, 19.7995622, 0.0 ], [ 73.2431393, 19.7995944, 0.0 ], [ 73.2420592, 19.7996726, 0.0 ], [ 73.2412915, 19.7999774, 0.0 ], [ 73.2401023, 19.8004496, 0.0 ], [ 73.2387205, 19.8011568, 0.0 ], [ 73.2368158, 19.8021315, 0.0 ], [ 73.2353884, 19.802738, 0.0 ], [ 73.2345392, 19.8030988, 0.0 ], [ 73.2329216, 19.8035476, 0.0 ], [ 73.2319731, 19.8035177, 0.0 ], [ 73.2312541, 19.8033581, 0.0 ], [ 73.2307749, 19.8029792, 0.0 ], [ 73.2298019, 19.8017103, 0.0 ], [ 73.2294083, 19.8007494, 0.0 ], [ 73.2290577, 19.7989761, 0.0 ], [ 73.2286863, 19.797895, 0.0 ], [ 73.2286619, 19.797824, 0.0 ], [ 73.2283106, 19.7973516, 0.0 ], [ 73.2269867, 19.7955712, 0.0 ], [ 73.2266072, 19.7947258, 0.0 ], [ 73.2265587, 19.7937568, 0.0 ], [ 73.2265488, 19.7935597, 0.0 ], [ 73.2267114, 19.7920813, 0.0 ], [ 73.2269692, 19.7897364, 0.0 ], [ 73.2271093, 19.7889379, 0.0 ], [ 73.2271633, 19.7886302, 0.0 ], [ 73.2273532, 19.7870405, 0.0 ], [ 73.2268574, 19.7851799, 0.0 ], [ 73.2267511, 19.7847812, 0.0 ], [ 73.2264582, 19.7840336, 0.0 ], [ 73.2257238, 19.7834134, 0.0 ], [ 73.2254753, 19.7832036, 0.0 ], [ 73.2251746, 19.7831016, 0.0 ], [ 73.2243688, 19.7831073, 0.0 ], [ 73.2236425, 19.783249, 0.0 ], [ 73.2218823, 19.7842216, 0.0 ], [ 73.2217401, 19.7843001, 0.0 ], [ 73.2215117, 19.7844263, 0.0 ], [ 73.2185881, 19.7858346, 0.0 ], [ 73.2180969, 19.786008, 0.0 ], [ 73.2168694, 19.7864411, 0.0 ], [ 73.2166955, 19.7864709, 0.0 ], [ 73.2151635, 19.7867329, 0.0 ], [ 73.2131693, 19.7865225, 0.0 ], [ 73.2128445, 19.7864882, 0.0 ], [ 73.2114389, 19.7860337, 0.0 ], [ 73.2107549, 19.7858125, 0.0 ], [ 73.2095096, 19.7856614, 0.0 ], [ 73.208695, 19.7858357, 0.0 ], [ 73.2081829, 19.7860915, 0.0 ], [ 73.2076941, 19.7868238, 0.0 ], [ 73.2071587, 19.7879862, 0.0 ], [ 73.2068088, 19.7896263, 0.0 ], [ 73.2064713, 19.7912083, 0.0 ], [ 73.2055557, 19.7924922, 0.0 ], [ 73.2053262, 19.7927663, 0.0 ], [ 73.2051303, 19.7930003, 0.0 ], [ 73.2045479, 19.7932911, 0.0 ], [ 73.2045015, 19.7933143, 0.0 ], [ 73.2035766, 19.793342, 0.0 ], [ 73.202883, 19.793222, 0.0 ], [ 73.2020507, 19.7925661, 0.0 ], [ 73.2012091, 19.7916794, 0.0 ], [ 73.2008669, 19.7910328, 0.0 ], [ 73.2004069, 19.7894751, 0.0 ], [ 73.199988, 19.7883888, 0.0 ], [ 73.1996059, 19.7870716, 0.0 ], [ 73.1995567, 19.7869022, 0.0 ], [ 73.1994353, 19.7845428, 0.0 ], [ 73.1994328, 19.7831675, 0.0 ], [ 73.199432, 19.7827831, 0.0 ], [ 73.1993328, 19.7822406, 0.0 ], [ 73.1991634, 19.7820657, 0.0 ], [ 73.1988622, 19.7818675, 0.0 ], [ 73.1982219, 19.7814463, 0.0 ], [ 73.1980533, 19.7812524, 0.0 ], [ 73.197339, 19.7804311, 0.0 ], [ 73.1966963, 19.7792965, 0.0 ], [ 73.1958522, 19.7775201, 0.0 ], [ 73.195347, 19.776114, 0.0 ], [ 73.1947218, 19.7743738, 0.0 ], [ 73.1942952, 19.7733897, 0.0 ], [ 73.1939668, 19.7726324, 0.0 ], [ 73.1938721, 19.7724179, 0.0 ], [ 73.1929735, 19.7703835, 0.0 ], [ 73.1928611, 19.7701291, 0.0 ], [ 73.192216, 19.7697793, 0.0 ], [ 73.1907969, 19.7694296, 0.0 ], [ 73.189341, 19.7695216, 0.0 ], [ 73.1875267, 19.7701322, 0.0 ], [ 73.186853, 19.770688, 0.0 ], [ 73.186648, 19.7711268, 0.0 ], [ 73.1866338, 19.7712973, 0.0 ], [ 73.1865601, 19.77218, 0.0 ], [ 73.1865797, 19.7750438, 0.0 ], [ 73.1865261, 19.7754981, 0.0 ], [ 73.1864866, 19.7758341, 0.0 ], [ 73.1851126, 19.7779021, 0.0 ], [ 73.1845208, 19.7782069, 0.0 ], [ 73.1843055, 19.7782309, 0.0 ], [ 73.18195, 19.7784932, 0.0 ], [ 73.18109, 19.7782069, 0.0 ], [ 73.1804721, 19.7780754, 0.0 ], [ 73.176694, 19.7772714, 0.0 ], [ 73.1759232, 19.7770105, 0.0 ], [ 73.1752723, 19.7767902, 0.0 ], [ 73.1735426, 19.7753893, 0.0 ], [ 73.1718155, 19.7736772, 0.0 ], [ 73.1716688, 19.7734261, 0.0 ], [ 73.1716535, 19.7733999, 0.0 ], [ 73.1715194, 19.7731702, 0.0 ], [ 73.1714136, 19.7726633, 0.0 ], [ 73.1714665, 19.7719346, 0.0 ], [ 73.1719322, 19.7711521, 0.0 ], [ 73.1728666, 19.7702038, 0.0 ], [ 73.1737709, 19.7693157, 0.0 ], [ 73.1741125, 19.7684449, 0.0 ], [ 73.1744755, 19.7675196, 0.0 ], [ 73.1745904, 19.7667928, 0.0 ], [ 73.1740733, 19.7652628, 0.0 ], [ 73.1734718, 19.7626172, 0.0 ], [ 73.172837, 19.761744, 0.0 ], [ 73.1725376, 19.7615646, 0.0 ], [ 73.1715196, 19.7615646, 0.0 ], [ 73.1701424, 19.7618995, 0.0 ], [ 73.1692801, 19.7619234, 0.0 ], [ 73.1678297, 19.7611368, 0.0 ], [ 73.1675404, 19.7609717, 0.0 ], [ 73.1664973, 19.7603764, 0.0 ], [ 73.1643459, 19.7597968, 0.0 ], [ 73.1642302, 19.7597657, 0.0 ], [ 73.1632785, 19.7594615, 0.0 ], [ 73.1624479, 19.7585298, 0.0 ], [ 73.1616205, 19.757148, 0.0 ], [ 73.1592733, 19.7543255, 0.0 ], [ 73.158887, 19.7539722, 0.0 ], [ 73.1584673, 19.7535884, 0.0 ], [ 73.1581959, 19.753241, 0.0 ], [ 73.1581627, 19.7526227, 0.0 ], [ 73.1581379, 19.7521608, 0.0 ], [ 73.1582413, 19.7515756, 0.0 ], [ 73.1587583, 19.7505428, 0.0 ], [ 73.1609233, 19.7495992, 0.0 ], [ 73.1616018, 19.7493035, 0.0 ], [ 73.1646574, 19.7474383, 0.0 ], [ 73.1653041, 19.7467277, 0.0 ], [ 73.1654765, 19.7461249, 0.0 ], [ 73.1653992, 19.7450945, 0.0 ], [ 73.1648743, 19.7436558, 0.0 ], [ 73.1644029, 19.7405495, 0.0 ], [ 73.1644904, 19.7389173, 0.0 ], [ 73.1647651, 19.736995, 0.0 ], [ 73.1648944, 19.7360905, 0.0 ], [ 73.1649034, 19.7359387, 0.0 ], [ 73.1649732, 19.7347521, 0.0 ], [ 73.1647959, 19.7340239, 0.0 ], [ 73.1635267, 19.7328486, 0.0 ], [ 73.1629864, 19.732668, 0.0 ], [ 73.1601103, 19.7317064, 0.0 ], [ 73.1591212, 19.7311586, 0.0 ], [ 73.1585825, 19.730112, 0.0 ], [ 73.1573438, 19.7283609, 0.0 ], [ 73.1564783, 19.7278172, 0.0 ], [ 73.1557385, 19.7275244, 0.0 ], [ 73.155222, 19.7275244, 0.0 ], [ 73.1544403, 19.7279984, 0.0 ], [ 73.1532817, 19.7289047, 0.0 ], [ 73.1523046, 19.7291974, 0.0 ], [ 73.1514949, 19.7291556, 0.0 ], [ 73.1507691, 19.7287652, 0.0 ], [ 73.1475299, 19.7268832, 0.0 ], [ 73.1463208, 19.7265397, 0.0 ], [ 73.1454268, 19.726298, 0.0 ], [ 73.1425443, 19.7255186, 0.0 ], [ 73.1421255, 19.725323, 0.0 ], [ 73.1419732, 19.7252518, 0.0 ], [ 73.1415641, 19.7250607, 0.0 ], [ 73.1394113, 19.721643, 0.0 ], [ 73.1387947, 19.7207745, 0.0 ], [ 73.13811, 19.7204005, 0.0 ], [ 73.1377829, 19.7202218, 0.0 ], [ 73.1352401, 19.7189231, 0.0 ], [ 73.1350003, 19.7188007, 0.0 ], [ 73.1335087, 19.7171724, 0.0 ], [ 73.1328388, 19.7162128, 0.0 ], [ 73.1323099, 19.715218, 0.0 ], [ 73.1319893, 19.7135822, 0.0 ], [ 73.1317632, 19.712478, 0.0 ], [ 73.1311623, 19.7107095, 0.0 ], [ 73.1299268, 19.7088495, 0.0 ], [ 73.1267205, 19.7048623, 0.0 ], [ 73.125842, 19.703596, 0.0 ], [ 73.1256044, 19.7031497, 0.0 ], [ 73.1252958, 19.7025698, 0.0 ], [ 73.1248364, 19.7022333, 0.0 ], [ 73.1245054, 19.7021035, 0.0 ], [ 73.1243218, 19.7020314, 0.0 ], [ 73.1233232, 19.701854, 0.0 ], [ 73.1232145, 19.7018481, 0.0 ], [ 73.12288, 19.7019705, 0.0 ], [ 73.1224565, 19.7022806, 0.0 ], [ 73.1216265, 19.7023464, 0.0 ], [ 73.1215673, 19.7023511, 0.0 ], [ 73.1210027, 19.7020833, 0.0 ], [ 73.1207942, 19.7017814, 0.0 ], [ 73.1207204, 19.7016744, 0.0 ], [ 73.1206075, 19.7012938, 0.0 ], [ 73.1204995, 19.7005202, 0.0 ], [ 73.1207409, 19.6997366, 0.0 ], [ 73.1217066, 19.6981693, 0.0 ], [ 73.1229881, 19.6960735, 0.0 ], [ 73.1234031, 19.6945051, 0.0 ], [ 73.1233518, 19.6939619, 0.0 ], [ 73.123347, 19.6939114, 0.0 ], [ 73.1230218, 19.693665, 0.0 ], [ 73.1218525, 19.6932339, 0.0 ], [ 73.1207645, 19.6926514, 0.0 ], [ 73.1196653, 19.6914079, 0.0 ], [ 73.1186334, 19.6907021, 0.0 ], [ 73.1179569, 19.6905655, 0.0 ], [ 73.1169474, 19.6907784, 0.0 ], [ 73.1159306, 19.6909465, 0.0 ], [ 73.1152538, 19.6910584, 0.0 ], [ 73.1149279, 19.6910093, 0.0 ], [ 73.1134704, 19.6907896, 0.0 ], [ 73.1121264, 19.6901533, 0.0 ], [ 73.111287, 19.6892033, 0.0 ], [ 73.1103807, 19.6885654, 0.0 ], [ 73.1080943, 19.687516, 0.0 ], [ 73.1065289, 19.6872279, 0.0 ], [ 73.1051694, 19.6871456, 0.0 ], [ 73.1044897, 19.687125, 0.0 ], [ 73.1031413, 19.6868553, 0.0 ], [ 73.1027306, 19.6865581, 0.0 ], [ 73.1020217, 19.6860451, 0.0 ], [ 73.1017169, 19.6858246, 0.0 ], [ 73.0999315, 19.6841847, 0.0 ], [ 73.0980108, 19.6825784, 0.0 ], [ 73.0961489, 19.6815254, 0.0 ], [ 73.0944312, 19.6806594, 0.0 ], [ 73.0933656, 19.6798193, 0.0 ], [ 73.0923216, 19.677956, 0.0 ], [ 73.0915858, 19.6766378, 0.0 ], [ 73.0910102, 19.6751688, 0.0 ], [ 73.0903868, 19.6741469, 0.0 ], [ 73.0901285, 19.6738889, 0.0 ], [ 73.0896514, 19.6734125, 0.0 ], [ 73.0887031, 19.672125, 0.0 ], [ 73.0884236, 19.6712622, 0.0 ], [ 73.0883982, 19.6703995, 0.0 ], [ 73.0887085, 19.6682879, 0.0 ], [ 73.08898, 19.6670088, 0.0 ], [ 73.0892608, 19.6660955, 0.0 ], [ 73.0897102, 19.6648588, 0.0 ], [ 73.0898427, 19.6639427, 0.0 ], [ 73.0899107, 19.6624246, 0.0 ], [ 73.0899294, 19.6613161, 0.0 ], [ 73.089936, 19.6609201, 0.0 ], [ 73.0898868, 19.6600673, 0.0 ], [ 73.089797, 19.6597007, 0.0 ], [ 73.0896779, 19.6592143, 0.0 ], [ 73.0892251, 19.6580372, 0.0 ], [ 73.0889569, 19.6576866, 0.0 ], [ 73.0885902, 19.6572071, 0.0 ], [ 73.0874475, 19.6564347, 0.0 ], [ 73.086247, 19.6558237, 0.0 ], [ 73.0857622, 19.6552703, 0.0 ], [ 73.0853349, 19.654005, 0.0 ], [ 73.0852771, 19.6534931, 0.0 ], [ 73.085287, 19.6532367, 0.0 ], [ 73.0852988, 19.6529307, 0.0 ], [ 73.085472, 19.6526855, 0.0 ], [ 73.086581, 19.6516633, 0.0 ], [ 73.0871432, 19.6510105, 0.0 ], [ 73.0872465, 19.6508697, 0.0 ], [ 73.0877184, 19.650227, 0.0 ], [ 73.0880452, 19.6491694, 0.0 ], [ 73.0880601, 19.6490425, 0.0 ], [ 73.0882681, 19.6472679, 0.0 ], [ 73.0883164, 19.646991, 0.0 ], [ 73.0884642, 19.646145, 0.0 ], [ 73.0883465, 19.6451918, 0.0 ], [ 73.0882584, 19.6450305, 0.0 ], [ 73.0881112, 19.6447609, 0.0 ], [ 73.0880736, 19.6447407, 0.0 ], [ 73.0877564, 19.6445832, 0.0 ], [ 73.087256, 19.6444166, 0.0 ], [ 73.086724, 19.6441485, 0.0 ], [ 73.0845708, 19.6430908, 0.0 ], [ 73.0838487, 19.6425976, 0.0 ], [ 73.0834648, 19.6423354, 0.0 ], [ 73.0832054, 19.6421582, 0.0 ], [ 73.0821015, 19.6420194, 0.0 ] ] } }
]
}
