{
"type": "FeatureCollection",
"name": "Vaitarna River -186km",
"features": [
{ "type": "Feature", "properties": { "objectid": 27140, "rivname": "Vaitarna", "rilcode": 3, "st_length_": 186.086, "bacode": 14, "ba_name": "West flowing rivers from Tapi to Tadri", "sub_basin": "Bhatsol and others", "remarks": "ok" }, "geometry": { "type": "MultiLineString", "coordinates": [ [ [ 73.5051238, 19.8091724, 0.0 ], [ 73.5046335, 19.8090309, 0.0 ], [ 73.5039296, 19.8087388, 0.0 ], [ 73.5031709, 19.8082731, 0.0 ], [ 73.5022933, 19.8081088, 0.0 ], [ 73.5022537, 19.8080989, 0.0 ], [ 73.5019642, 19.8080266, 0.0 ], [ 73.5017174, 19.8080814, 0.0 ], [ 73.5011506, 19.8082822, 0.0 ], [ 73.5009129, 19.8085379, 0.0 ], [ 73.5006995, 19.8086341, 0.0 ], [ 73.5006295, 19.8086657, 0.0 ], [ 73.5004376, 19.8086566, 0.0 ], [ 73.5000613, 19.8085207, 0.0 ], [ 73.4998088, 19.8083396, 0.0 ], [ 73.4994591, 19.808068, 0.0 ], [ 73.4991548, 19.8076153, 0.0 ], [ 73.4988234, 19.8069029, 0.0 ], [ 73.4988203, 19.8068963, 0.0 ], [ 73.4985202, 19.806095, 0.0 ], [ 73.4984025, 19.8058555, 0.0 ], [ 73.4982085, 19.8054608, 0.0 ], [ 73.498025, 19.8048955, 0.0 ], [ 73.4980158, 19.8043686, 0.0 ], [ 73.4980433, 19.8038959, 0.0 ], [ 73.4981763, 19.8034422, 0.0 ], [ 73.4982003, 19.8033605, 0.0 ], [ 73.4982591, 19.8026488, 0.0 ], [ 73.4982003, 19.8022766, 0.0 ], [ 73.4977376, 19.8015147, 0.0 ], [ 73.4974035, 19.801089, 0.0 ], [ 73.4973081, 19.8009675, 0.0 ], [ 73.4971082, 19.8006716, 0.0 ], [ 73.4970415, 19.8004054, 0.0 ], [ 73.4970375, 19.8002326, 0.0 ], [ 73.4970341, 19.8000874, 0.0 ], [ 73.4969305, 19.7996067, 0.0 ], [ 73.4968712, 19.7992295, 0.0 ], [ 73.4965808, 19.7985921, 0.0 ], [ 73.4964542, 19.798417, 0.0 ], [ 73.4962376, 19.7981175, 0.0 ], [ 73.4956283, 19.797219, 0.0 ], [ 73.4950461, 19.7966899, 0.0 ], [ 73.4947424, 19.7962965, 0.0 ], [ 73.494658, 19.796187, 0.0 ], [ 73.494338, 19.7957994, 0.0 ], [ 73.4938901, 19.7947607, 0.0 ], [ 73.4936368, 19.7944079, 0.0 ], [ 73.4933436, 19.7941683, 0.0 ], [ 73.4919444, 19.7937179, 0.0 ], [ 73.4915685, 19.793628, 0.0 ], [ 73.4913302, 19.793501, 0.0 ], [ 73.4912031, 19.7933477, 0.0 ], [ 73.4911607, 19.7931096, 0.0 ], [ 73.4911737, 19.7922944, 0.0 ], [ 73.4911737, 19.7919372, 0.0 ], [ 73.4910811, 19.7916304, 0.0 ], [ 73.4908512, 19.7912271, 0.0 ], [ 73.4901714, 19.7904446, 0.0 ], [ 73.4901589, 19.7904302, 0.0 ], [ 73.4895815, 19.7895545, 0.0 ], [ 73.4890527, 19.7884785, 0.0 ], [ 73.4883576, 19.7872852, 0.0 ], [ 73.487992, 19.7865205, 0.0 ], [ 73.4875561, 19.7856085, 0.0 ], [ 73.4874744, 19.7854376, 0.0 ], [ 73.4867469, 19.7837524, 0.0 ], [ 73.4863057, 19.7821456, 0.0 ], [ 73.4863057, 19.7818008, 0.0 ], [ 73.486311, 19.7817155, 0.0 ], [ 73.4863316, 19.781387, 0.0 ], [ 73.4864697, 19.7809819, 0.0 ], [ 73.4867286, 19.780594, 0.0 ], [ 73.4876555, 19.7798752, 0.0 ], [ 73.4883353, 19.7792181, 0.0 ], [ 73.4885408, 19.7789061, 0.0 ], [ 73.4886095, 19.7788019, 0.0 ], [ 73.4889604, 19.7780791, 0.0 ], [ 73.4892016, 19.7772905, 0.0 ], [ 73.4892784, 19.7768744, 0.0 ], [ 73.4892171, 19.7764846, 0.0 ], [ 73.4890952, 19.7757086, 0.0 ], [ 73.4890458, 19.775394, 0.0 ], [ 73.488959, 19.7744548, 0.0 ], [ 73.4890351, 19.7740607, 0.0 ], [ 73.4890801, 19.7739611, 0.0 ], [ 73.4891321, 19.7738463, 0.0 ], [ 73.4893326, 19.7737028, 0.0 ], [ 73.4896444, 19.7734798, 0.0 ], [ 73.4904391, 19.7731938, 0.0 ], [ 73.4910279, 19.7730457, 0.0 ], [ 73.4917322, 19.7728687, 0.0 ], [ 73.4924536, 19.7726226, 0.0 ], [ 73.4932102, 19.77228, 0.0 ], [ 73.4933446, 19.7721974, 0.0 ], [ 73.4941691, 19.7716913, 0.0 ], [ 73.4942193, 19.7716482, 0.0 ], [ 73.4950381, 19.7709466, 0.0 ], [ 73.4957353, 19.7703491, 0.0 ], [ 73.4972924, 19.7692882, 0.0 ], [ 73.4980866, 19.768747, 0.0 ], [ 73.4981606, 19.7686875, 0.0 ], [ 73.4987892, 19.7681821, 0.0 ], [ 73.4989036, 19.7680902, 0.0 ], [ 73.4989363, 19.767997, 0.0 ], [ 73.4989734, 19.7678911, 0.0 ], [ 73.4989634, 19.7675627, 0.0 ], [ 73.498669, 19.7662209, 0.0 ], [ 73.4985044, 19.7648301, 0.0 ], [ 73.4984999, 19.7647738, 0.0 ], [ 73.4984348, 19.7639609, 0.0 ], [ 73.4983614, 19.7630433, 0.0 ], [ 73.4984178, 19.7618449, 0.0 ], [ 73.4985119, 19.7614509, 0.0 ], [ 73.4986366, 19.7609285, 0.0 ], [ 73.498899, 19.7605878, 0.0 ], [ 73.4990601, 19.7603787, 0.0 ], [ 73.4993079, 19.7601942, 0.0 ], [ 73.4994403, 19.7601013, 0.0 ], [ 73.4995475, 19.760026, 0.0 ], [ 73.4997289, 19.7598125, 0.0 ], [ 73.4999232, 19.7595085, 0.0 ], [ 73.5001936, 19.7588153, 0.0 ], [ 73.5002019, 19.7587882, 0.0 ], [ 73.5003962, 19.7581545, 0.0 ], [ 73.5008007, 19.7568351, 0.0 ], [ 73.5010238, 19.7561256, 0.0 ], [ 73.5011219, 19.7558137, 0.0 ], [ 73.5011638, 19.7556806, 0.0 ], [ 73.5014043, 19.7549159, 0.0 ], [ 73.5015993, 19.7544459, 0.0 ], [ 73.502606, 19.7520204, 0.0 ], [ 73.5030559, 19.7509505, 0.0 ], [ 73.5031295, 19.7507755, 0.0 ], [ 73.5033954, 19.7498792, 0.0 ], [ 73.5034355, 19.7495076, 0.0 ], [ 73.5034535, 19.7493398, 0.0 ], [ 73.5033316, 19.7479026, 0.0 ], [ 73.5034266, 19.7468693, 0.0 ], [ 73.5032724, 19.7460579, 0.0 ], [ 73.5032683, 19.7460363, 0.0 ], [ 73.5030466, 19.7456356, 0.0 ], [ 73.5021412, 19.7446281, 0.0 ], [ 73.5015601, 19.7441599, 0.0 ], [ 73.501385, 19.7438938, 0.0 ], [ 73.5009803, 19.7432786, 0.0 ], [ 73.5009387, 19.7431581, 0.0 ], [ 73.5008754, 19.7429746, 0.0 ], [ 73.5008859, 19.7426235, 0.0 ], [ 73.5010223, 19.7420418, 0.0 ], [ 73.50107, 19.7419645, 0.0 ], [ 73.5015254, 19.7412261, 0.0 ], [ 73.5017919, 19.740747, 0.0 ], [ 73.5019624, 19.7401828, 0.0 ], [ 73.5019731, 19.7396825, 0.0 ], [ 73.5019452, 19.739529, 0.0 ], [ 73.5018665, 19.739097, 0.0 ], [ 73.5015254, 19.7383837, 0.0 ], [ 73.5011524, 19.7379259, 0.0 ], [ 73.5010913, 19.7377388, 0.0 ], [ 73.5009926, 19.7374361, 0.0 ], [ 73.5010385, 19.7371962, 0.0 ], [ 73.5010792, 19.7369834, 0.0 ], [ 73.5013659, 19.7365373, 0.0 ], [ 73.5018555, 19.7362573, 0.0 ], [ 73.5032142, 19.7358872, 0.0 ], [ 73.5037017, 19.7355896, 0.0 ], [ 73.5037273, 19.735574, 0.0 ], [ 73.5039743, 19.7351185, 0.0 ], [ 73.5040693, 19.7348623, 0.0 ], [ 73.5040444, 19.7346135, 0.0 ], [ 73.5040123, 19.7342929, 0.0 ], [ 73.5037938, 19.7338754, 0.0 ], [ 73.5034898, 19.7334483, 0.0 ], [ 73.5031192, 19.733287, 0.0 ], [ 73.5026429, 19.7332741, 0.0 ], [ 73.5024161, 19.733268, 0.0 ], [ 73.5015515, 19.7334673, 0.0 ], [ 73.5001168, 19.7337994, 0.0 ], [ 73.4995251, 19.7337458, 0.0 ], [ 73.4989807, 19.7336444, 0.0 ], [ 73.4986574, 19.7334622, 0.0 ], [ 73.4986209, 19.7334417, 0.0 ], [ 73.4980857, 19.7330638, 0.0 ], [ 73.4975137, 19.7325386, 0.0 ], [ 73.4969756, 19.7319039, 0.0 ], [ 73.4968364, 19.7317396, 0.0 ], [ 73.4962182, 19.7309747, 0.0 ], [ 73.4956435, 19.7306334, 0.0 ], [ 73.4955354, 19.7305692, 0.0 ], [ 73.4950648, 19.7304494, 0.0 ], [ 73.4937362, 19.730431, 0.0 ], [ 73.4932729, 19.7304425, 0.0 ], [ 73.4924416, 19.730463, 0.0 ], [ 73.4915033, 19.7304863, 0.0 ], [ 73.490261, 19.7304531, 0.0 ], [ 73.489335, 19.7304283, 0.0 ], [ 73.4879268, 19.7300767, 0.0 ], [ 73.4874092, 19.7299474, 0.0 ], [ 73.4872718, 19.7299131, 0.0 ], [ 73.4864512, 19.7295619, 0.0 ], [ 73.485994, 19.7292106, 0.0 ], [ 73.485861, 19.7289707, 0.0 ], [ 73.4855719, 19.7284495, 0.0 ], [ 73.4854254, 19.7277288, 0.0 ], [ 73.485305, 19.7271365, 0.0 ], [ 73.4850311, 19.7258985, 0.0 ], [ 73.4849875, 19.7257014, 0.0 ], [ 73.4846366, 19.7252841, 0.0 ], [ 73.4841521, 19.7250004, 0.0 ], [ 73.483467, 19.7249504, 0.0 ], [ 73.4820635, 19.7250004, 0.0 ], [ 73.4816959, 19.7251173, 0.0 ], [ 73.4810777, 19.7255178, 0.0 ], [ 73.4805572, 19.726518, 0.0 ], [ 73.4798764, 19.7278266, 0.0 ], [ 73.4788507, 19.7302332, 0.0 ], [ 73.478402, 19.7309564, 0.0 ], [ 73.4779311, 19.7317153, 0.0 ], [ 73.4772623, 19.7326442, 0.0 ], [ 73.4768757, 19.732853, 0.0 ], [ 73.4768224, 19.7328581, 0.0 ], [ 73.4765517, 19.7328843, 0.0 ], [ 73.4765073, 19.7328609, 0.0 ], [ 73.4763532, 19.7327799, 0.0 ], [ 73.476165, 19.7325607, 0.0 ], [ 73.4759978, 19.7319554, 0.0 ], [ 73.4756634, 19.731016, 0.0 ], [ 73.4753667, 19.7293848, 0.0 ], [ 73.4750539, 19.7276655, 0.0 ], [ 73.4750364, 19.7268497, 0.0 ], [ 73.4750179, 19.7259836, 0.0 ], [ 73.4751141, 19.724431, 0.0 ], [ 73.4750244, 19.7230804, 0.0 ], [ 73.4749943, 19.7230177, 0.0 ], [ 73.4746912, 19.7223854, 0.0 ], [ 73.4744396, 19.7220749, 0.0 ], [ 73.4734772, 19.72172, 0.0 ], [ 73.4731896, 19.7216695, 0.0 ], [ 73.4728036, 19.7216017, 0.0 ], [ 73.4722471, 19.7216612, 0.0 ], [ 73.4715926, 19.7219756, 0.0 ], [ 73.4705801, 19.7224621, 0.0 ], [ 73.4701421, 19.7226134, 0.0 ], [ 73.4691769, 19.7229468, 0.0 ], [ 73.4682789, 19.7230946, 0.0 ], [ 73.4682168, 19.7231049, 0.0 ], [ 73.4675626, 19.7230311, 0.0 ], [ 73.4670245, 19.7227676, 0.0 ], [ 73.4667502, 19.7223461, 0.0 ], [ 73.466678, 19.7221358, 0.0 ], [ 73.466497, 19.7216085, 0.0 ], [ 73.466191, 19.7199962, 0.0 ], [ 73.4659065, 19.719362, 0.0 ], [ 73.4653783, 19.7187173, 0.0 ], [ 73.4645651, 19.7183405, 0.0 ], [ 73.4637938, 19.7181814, 0.0 ], [ 73.4631818, 19.7182567, 0.0 ], [ 73.4625975, 19.7184765, 0.0 ], [ 73.4625362, 19.7184996, 0.0 ], [ 73.4617965, 19.7192739, 0.0 ], [ 73.4607375, 19.721432, 0.0 ], [ 73.4605259, 19.7218093, 0.0 ], [ 73.4600709, 19.7226205, 0.0 ], [ 73.4591098, 19.7236673, 0.0 ], [ 73.4584269, 19.7239461, 0.0 ], [ 73.4579636, 19.7239402, 0.0 ], [ 73.457732, 19.7238512, 0.0 ], [ 73.4576194, 19.7237183, 0.0 ], [ 73.4576014, 19.723697, 0.0 ], [ 73.4575064, 19.723353, 0.0 ], [ 73.4573757, 19.7226886, 0.0 ], [ 73.4575141, 19.7221206, 0.0 ], [ 73.457895, 19.7206664, 0.0 ], [ 73.4579246, 19.7205169, 0.0 ], [ 73.4581634, 19.719306, 0.0 ], [ 73.4581272, 19.7182887, 0.0 ], [ 73.458103, 19.7176103, 0.0 ], [ 73.457866, 19.7170323, 0.0 ], [ 73.4577691, 19.716796, 0.0 ], [ 73.4572848, 19.7158555, 0.0 ], [ 73.4567803, 19.7154121, 0.0 ], [ 73.4560942, 19.7152173, 0.0 ], [ 73.4554889, 19.7152643, 0.0 ], [ 73.45498, 19.7154685, 0.0 ], [ 73.4547355, 19.7155666, 0.0 ], [ 73.4529057, 19.7168966, 0.0 ], [ 73.4527831, 19.7169857, 0.0 ], [ 73.452187, 19.7174543, 0.0 ], [ 73.4512048, 19.7182265, 0.0 ], [ 73.4508132, 19.7185493, 0.0 ], [ 73.4497975, 19.7193868, 0.0 ], [ 73.4495235, 19.7195549, 0.0 ], [ 73.4491187, 19.7198032, 0.0 ], [ 73.4487232, 19.7198513, 0.0 ], [ 73.4483544, 19.7197819, 0.0 ], [ 73.4479963, 19.719547, 0.0 ], [ 73.4474885, 19.7189918, 0.0 ], [ 73.4470813, 19.7184017, 0.0 ], [ 73.4470531, 19.7183466, 0.0 ], [ 73.4467851, 19.7178237, 0.0 ], [ 73.4466466, 19.7175534, 0.0 ], [ 73.4464283, 19.7171276, 0.0 ], [ 73.4462987, 19.716777, 0.0 ], [ 73.4459869, 19.7159339, 0.0 ], [ 73.4456403, 19.7152392, 0.0 ], [ 73.445579, 19.7151164, 0.0 ], [ 73.4449678, 19.7142618, 0.0 ], [ 73.4442893, 19.7136155, 0.0 ], [ 73.4439811, 19.7133218, 0.0 ], [ 73.4435113, 19.7127708, 0.0 ], [ 73.4433971, 19.7126368, 0.0 ], [ 73.4428334, 19.7116669, 0.0 ], [ 73.4428227, 19.7116363, 0.0 ], [ 73.4426231, 19.7110687, 0.0 ], [ 73.4423546, 19.7103047, 0.0 ], [ 73.442287, 19.7101127, 0.0 ], [ 73.4422407, 19.7099808, 0.0 ], [ 73.4416295, 19.7091465, 0.0 ], [ 73.4409232, 19.7088752, 0.0 ], [ 73.4407109, 19.7088669, 0.0 ], [ 73.4404003, 19.7088548, 0.0 ], [ 73.4396194, 19.7091194, 0.0 ], [ 73.4382763, 19.7104205, 0.0 ], [ 73.4368631, 19.7119963, 0.0 ], [ 73.4363133, 19.7122224, 0.0 ], [ 73.436205, 19.712267, 0.0 ], [ 73.4356823, 19.712238, 0.0 ], [ 73.4352274, 19.7119383, 0.0 ], [ 73.4348499, 19.7114549, 0.0 ], [ 73.4348486, 19.7114519, 0.0 ], [ 73.4344571, 19.7105627, 0.0 ], [ 73.4339685, 19.7094531, 0.0 ], [ 73.433579, 19.708144, 0.0 ], [ 73.4333785, 19.7074137, 0.0 ], [ 73.4330319, 19.7061515, 0.0 ], [ 73.4323669, 19.7046011, 0.0 ], [ 73.4321539, 19.7041045, 0.0 ], [ 73.4318153, 19.7035247, 0.0 ], [ 73.4316694, 19.7032749, 0.0 ], [ 73.4311695, 19.7029292, 0.0 ], [ 73.4306157, 19.7027679, 0.0 ], [ 73.4304283, 19.702788, 0.0 ], [ 73.4301158, 19.7028216, 0.0 ], [ 73.4293389, 19.7033747, 0.0 ], [ 73.4292451, 19.7034945, 0.0 ], [ 73.4284658, 19.7044894, 0.0 ], [ 73.4280608, 19.7050063, 0.0 ], [ 73.427332, 19.7056213, 0.0 ], [ 73.426682, 19.7061698, 0.0 ], [ 73.4262865, 19.706389, 0.0 ], [ 73.4262073, 19.7064329, 0.0 ], [ 73.4254206, 19.7068689, 0.0 ], [ 73.424367, 19.70739, 0.0 ], [ 73.4234943, 19.7078216, 0.0 ], [ 73.4232008, 19.7078808, 0.0 ], [ 73.4220868, 19.7081058, 0.0 ], [ 73.4218355, 19.708125, 0.0 ], [ 73.4209793, 19.7081903, 0.0 ], [ 73.4204232, 19.7080427, 0.0 ], [ 73.4203717, 19.708029, 0.0 ], [ 73.4199871, 19.7075143, 0.0 ], [ 73.4192385, 19.7064127, 0.0 ], [ 73.4188232, 19.7056214, 0.0 ], [ 73.4187638, 19.7055764, 0.0 ], [ 73.4184078, 19.7053065, 0.0 ], [ 73.4181002, 19.705245, 0.0 ], [ 73.417608, 19.7054524, 0.0 ], [ 73.4163533, 19.7071582, 0.0 ], [ 73.4158852, 19.7077988, 0.0 ], [ 73.4154653, 19.7083735, 0.0 ], [ 73.4151364, 19.7085159, 0.0 ], [ 73.4147278, 19.7085265, 0.0 ], [ 73.4142923, 19.7085378, 0.0 ], [ 73.4137333, 19.708494, 0.0 ], [ 73.4134811, 19.7083188, 0.0 ], [ 73.4133595, 19.7082286, 0.0 ], [ 73.4131413, 19.7080669, 0.0 ], [ 73.4129988, 19.7076071, 0.0 ], [ 73.4129046, 19.7069311, 0.0 ], [ 73.4128782, 19.7067421, 0.0 ], [ 73.4130676, 19.7059053, 0.0 ], [ 73.4130977, 19.7057724, 0.0 ], [ 73.4144867, 19.7036506, 0.0 ], [ 73.4157055, 19.7012845, 0.0 ], [ 73.4160805, 19.7003794, 0.0 ], [ 73.4160805, 19.699944, 0.0 ], [ 73.4160805, 19.6996304, 0.0 ], [ 73.4160289, 19.6993831, 0.0 ], [ 73.4160023, 19.6992558, 0.0 ], [ 73.4158148, 19.6990217, 0.0 ], [ 73.4154112, 19.698923, 0.0 ], [ 73.4150492, 19.6988345, 0.0 ], [ 73.4139712, 19.6990217, 0.0 ], [ 73.4137505, 19.6990859, 0.0 ], [ 73.4124674, 19.6994587, 0.0 ], [ 73.4122525, 19.6995211, 0.0 ], [ 73.412156, 19.699558, 0.0 ], [ 73.4104785, 19.7001992, 0.0 ], [ 73.4099611, 19.700397, 0.0 ], [ 73.4094965, 19.7005746, 0.0 ], [ 73.4088772, 19.700837, 0.0 ], [ 73.4073183, 19.7014977, 0.0 ], [ 73.4071053, 19.701541, 0.0 ], [ 73.4066326, 19.7016371, 0.0 ], [ 73.4062976, 19.7017052, 0.0 ], [ 73.4060664, 19.7017146, 0.0 ], [ 73.4056987, 19.7017296, 0.0 ], [ 73.4054024, 19.701685, 0.0 ], [ 73.4052525, 19.7016625, 0.0 ], [ 73.4033568, 19.7011522, 0.0 ], [ 73.4018652, 19.7007869, 0.0 ], [ 73.4010832, 19.7005954, 0.0 ], [ 73.4004909, 19.7005693, 0.0 ], [ 73.4002857, 19.7006278, 0.0 ], [ 73.3997591, 19.7007781, 0.0 ], [ 73.3993033, 19.7009992, 0.0 ], [ 73.3988484, 19.7012199, 0.0 ], [ 73.3975696, 19.7012075, 0.0 ], [ 73.3969115, 19.7009967, 0.0 ], [ 73.3964273, 19.700513, 0.0 ], [ 73.3958194, 19.6998035, 0.0 ], [ 73.395719, 19.6996864, 0.0 ], [ 73.3953223, 19.6992234, 0.0 ], [ 73.3946643, 19.6986033, 0.0 ], [ 73.3935759, 19.6983808, 0.0 ], [ 73.3930875, 19.6982809, 0.0 ], [ 73.392206, 19.6978509, 0.0 ], [ 73.3918378, 19.6976714, 0.0 ], [ 73.3905602, 19.6961366, 0.0 ], [ 73.3902904, 19.6958124, 0.0 ], [ 73.3892633, 19.6949041, 0.0 ], [ 73.3891124, 19.6948449, 0.0 ], [ 73.3882502, 19.6944576, 0.0 ], [ 73.3874847, 19.6942239, 0.0 ], [ 73.3864215, 19.6942026, 0.0 ], [ 73.3852306, 19.6942026, 0.0 ], [ 73.3848054, 19.6944788, 0.0 ], [ 73.3844226, 19.6948188, 0.0 ], [ 73.3841249, 19.6952437, 0.0 ], [ 73.3838272, 19.696391, 0.0 ], [ 73.3837847, 19.6972197, 0.0 ], [ 73.383714, 19.6975524, 0.0 ], [ 73.3836358, 19.6979208, 0.0 ], [ 73.3833168, 19.6986007, 0.0 ], [ 73.382764, 19.6990469, 0.0 ], [ 73.3822961, 19.6990894, 0.0 ], [ 73.3816582, 19.6988344, 0.0 ], [ 73.3811904, 19.698452, 0.0 ], [ 73.3808076, 19.698027, 0.0 ], [ 73.3804887, 19.6974109, 0.0 ], [ 73.3804461, 19.6966035, 0.0 ], [ 73.3808424, 19.692966, 0.0 ], [ 73.3811592, 19.6906432, 0.0 ], [ 73.3811379, 19.6900058, 0.0 ], [ 73.3808189, 19.6892409, 0.0 ], [ 73.3804362, 19.6888584, 0.0 ], [ 73.3796281, 19.688476, 0.0 ], [ 73.3789689, 19.6882635, 0.0 ], [ 73.3759444, 19.68766, 0.0 ], [ 73.3754978, 19.68766, 0.0 ], [ 73.3746472, 19.6878087, 0.0 ], [ 73.3723253, 19.6886851, 0.0 ], [ 73.3708196, 19.6892535, 0.0 ], [ 73.3703305, 19.6894872, 0.0 ], [ 73.369161, 19.6898909, 0.0 ], [ 73.3687357, 19.6898909, 0.0 ], [ 73.3683955, 19.6898484, 0.0 ], [ 73.3679702, 19.6896147, 0.0 ], [ 73.3676299, 19.6892322, 0.0 ], [ 73.3675236, 19.688786, 0.0 ], [ 73.3676087, 19.6881699, 0.0 ], [ 73.3678242, 19.6867433, 0.0 ], [ 73.3680093, 19.68608, 0.0 ], [ 73.3692128, 19.6837503, 0.0 ], [ 73.3692144, 19.6837445, 0.0 ], [ 73.369775, 19.6817339, 0.0 ], [ 73.3698043, 19.6807696, 0.0 ], [ 73.3697828, 19.6806353, 0.0 ], [ 73.3697451, 19.6803999, 0.0 ], [ 73.3696445, 19.6797719, 0.0 ], [ 73.3694367, 19.6791892, 0.0 ], [ 73.3691157, 19.6786964, 0.0 ], [ 73.3690052, 19.6785268, 0.0 ], [ 73.3687815, 19.6783033, 0.0 ], [ 73.3680574, 19.6778465, 0.0 ], [ 73.3671427, 19.6776258, 0.0 ], [ 73.3670774, 19.6776187, 0.0 ], [ 73.3645928, 19.6773492, 0.0 ], [ 73.3631293, 19.677098, 0.0 ], [ 73.3626872, 19.6769229, 0.0 ], [ 73.3625433, 19.6767713, 0.0 ], [ 73.361606, 19.6757836, 0.0 ], [ 73.360798, 19.6747554, 0.0 ], [ 73.3607198, 19.674656, 0.0 ], [ 73.3606139, 19.6745212, 0.0 ], [ 73.3602978, 19.6742055, 0.0 ], [ 73.3601451, 19.6740529, 0.0 ], [ 73.3599796, 19.6740155, 0.0 ], [ 73.3592753, 19.6738561, 0.0 ], [ 73.3590278, 19.6738831, 0.0 ], [ 73.3584667, 19.6739444, 0.0 ], [ 73.3572052, 19.6746973, 0.0 ], [ 73.3571138, 19.6747518, 0.0 ], [ 73.3565295, 19.6754265, 0.0 ], [ 73.356357, 19.6756256, 0.0 ], [ 73.3560582, 19.6759706, 0.0 ], [ 73.3552544, 19.6769959, 0.0 ], [ 73.3548755, 19.6777851, 0.0 ], [ 73.3548077, 19.6788975, 0.0 ], [ 73.3550296, 19.6799086, 0.0 ], [ 73.3550704, 19.6800942, 0.0 ], [ 73.3552946, 19.680481, 0.0 ], [ 73.3557096, 19.6811969, 0.0 ], [ 73.3578091, 19.6842786, 0.0 ], [ 73.3580626, 19.6846508, 0.0 ], [ 73.3583567, 19.6857492, 0.0 ], [ 73.3583801, 19.6858364, 0.0 ], [ 73.3583785, 19.6858524, 0.0 ], [ 73.3583249, 19.6863879, 0.0 ], [ 73.3579521, 19.6867739, 0.0 ], [ 73.3562384, 19.6879856, 0.0 ], [ 73.3557749, 19.6882953, 0.0 ], [ 73.3549866, 19.688822, 0.0 ], [ 73.354178, 19.6896512, 0.0 ], [ 73.353376, 19.6904737, 0.0 ], [ 73.353039, 19.6908341, 0.0 ], [ 73.3520677, 19.6918727, 0.0 ], [ 73.3517618, 19.6920801, 0.0 ], [ 73.3511661, 19.6924841, 0.0 ], [ 73.3498964, 19.693345, 0.0 ], [ 73.3493647, 19.6936284, 0.0 ], [ 73.3483123, 19.6941893, 0.0 ], [ 73.3476915, 19.6942202, 0.0 ], [ 73.3462968, 19.6942783, 0.0 ], [ 73.3462125, 19.6942818, 0.0 ], [ 73.3452266, 19.694056, 0.0 ], [ 73.3441995, 19.6937685, 0.0 ], [ 73.3434811, 19.6933358, 0.0 ], [ 73.3429778, 19.6930327, 0.0 ], [ 73.3419818, 19.6924328, 0.0 ], [ 73.3417121, 19.6919963, 0.0 ], [ 73.3414166, 19.6912132, 0.0 ], [ 73.3424495, 19.6858114, 0.0 ], [ 73.3424029, 19.6834839, 0.0 ], [ 73.3418673, 19.6815521, 0.0 ], [ 73.3413867, 19.6810328, 0.0 ], [ 73.3410057, 19.6806211, 0.0 ], [ 73.339725, 19.6805746, 0.0 ], [ 73.3392458, 19.6807562, 0.0 ], [ 73.3383743, 19.6810866, 0.0 ], [ 73.3366278, 19.6834607, 0.0 ], [ 73.3359528, 19.6873797, 0.0 ], [ 73.3356796, 19.6889664, 0.0 ], [ 73.3355921, 19.689474, 0.0 ], [ 73.3353175, 19.6899892, 0.0 ], [ 73.3345659, 19.6913994, 0.0 ], [ 73.3340392, 19.6923874, 0.0 ], [ 73.3335025, 19.6925318, 0.0 ], [ 73.3326486, 19.6924801, 0.0 ], [ 73.3324806, 19.6924699, 0.0 ], [ 73.3316961, 19.6923461, 0.0 ], [ 73.3311696, 19.6920985, 0.0 ], [ 73.3310043, 19.6918903, 0.0 ], [ 73.3309954, 19.6918791, 0.0 ], [ 73.3306535, 19.6914485, 0.0 ], [ 73.3305813, 19.6909121, 0.0 ], [ 73.3309591, 19.6872793, 0.0 ], [ 73.3312883, 19.6853351, 0.0 ], [ 73.3312883, 19.6841386, 0.0 ], [ 73.3305401, 19.6830318, 0.0 ], [ 73.3298246, 19.6828275, 0.0 ], [ 73.3294927, 19.6827327, 0.0 ], [ 73.3235226, 19.6818862, 0.0 ], [ 73.3232356, 19.6818455, 0.0 ], [ 73.3228964, 19.6814725, 0.0 ], [ 73.3225571, 19.6810995, 0.0 ], [ 73.3225107, 19.6795709, 0.0 ], [ 73.3224892, 19.6788615, 0.0 ], [ 73.3227946, 19.6762165, 0.0 ], [ 73.3227245, 19.6754641, 0.0 ], [ 73.3226589, 19.6747584, 0.0 ], [ 73.3217089, 19.6741819, 0.0 ], [ 73.3206232, 19.674148, 0.0 ], [ 73.3188251, 19.6746227, 0.0 ], [ 73.3177055, 19.675267, 0.0 ], [ 73.3171296, 19.6755331, 0.0 ], [ 73.3141093, 19.6769286, 0.0 ], [ 73.3127497, 19.676902, 0.0 ], [ 73.312379, 19.6768947, 0.0 ], [ 73.3106487, 19.6768608, 0.0 ], [ 73.3056715, 19.6767666, 0.0 ], [ 73.3042307, 19.6779164, 0.0 ], [ 73.3035898, 19.6784279, 0.0 ], [ 73.3029348, 19.6789506, 0.0 ], [ 73.3022553, 19.6795346, 0.0 ], [ 73.3016365, 19.6800664, 0.0 ], [ 73.3007932, 19.6807912, 0.0 ], [ 73.2997729, 19.680758, 0.0 ], [ 73.2963527, 19.6799797, 0.0 ], [ 73.2975614, 19.6731971, 0.0 ], [ 73.2969599, 19.6729461, 0.0 ], [ 73.2965081, 19.6726574, 0.0 ], [ 73.2958582, 19.6722421, 0.0 ], [ 73.2944938, 19.6713701, 0.0 ], [ 73.2902846, 19.6705511, 0.0 ], [ 73.2883828, 19.6702921, 0.0 ], [ 73.2855156, 19.669413, 0.0 ], [ 73.2835686, 19.6691999, 0.0 ], [ 73.2828218, 19.6694796, 0.0 ], [ 73.2823128, 19.6703308, 0.0 ], [ 73.2822084, 19.6705052, 0.0 ], [ 73.2821551, 19.6717439, 0.0 ], [ 73.282388, 19.6728562, 0.0 ], [ 73.2824621, 19.6736706, 0.0 ], [ 73.2825544, 19.6746847, 0.0 ], [ 73.2823178, 19.6758215, 0.0 ], [ 73.2820593, 19.6763445, 0.0 ], [ 73.281602, 19.6766225, 0.0 ], [ 73.2813019, 19.6767668, 0.0 ], [ 73.2812441, 19.6767946, 0.0 ], [ 73.2807669, 19.6768145, 0.0 ], [ 73.2804686, 19.6767152, 0.0 ], [ 73.2801174, 19.6766026, 0.0 ], [ 73.2798138, 19.6763471, 0.0 ], [ 73.2793844, 19.6758845, 0.0 ], [ 73.2792524, 19.6756604, 0.0 ], [ 73.2789564, 19.6751577, 0.0 ], [ 73.2787164, 19.6744504, 0.0 ], [ 73.2786564, 19.6733356, 0.0 ], [ 73.2786624, 19.671409, 0.0 ], [ 73.2788301, 19.6699469, 0.0 ], [ 73.2788041, 19.6693145, 0.0 ], [ 73.2787582, 19.6682003, 0.0 ], [ 73.2781672, 19.666662, 0.0 ], [ 73.2778138, 19.6658881, 0.0 ], [ 73.2761527, 19.6641407, 0.0 ], [ 73.2755807, 19.6638205, 0.0 ], [ 73.27505, 19.6635234, 0.0 ], [ 73.2749364, 19.6635112, 0.0 ], [ 73.2746016, 19.663475, 0.0 ], [ 73.2736807, 19.6637413, 0.0 ], [ 73.2724205, 19.6644916, 0.0 ], [ 73.2713447, 19.6651548, 0.0 ], [ 73.2711956, 19.6652467, 0.0 ], [ 73.2708695, 19.6654477, 0.0 ], [ 73.2698637, 19.6658834, 0.0 ], [ 73.2693593, 19.6659555, 0.0 ], [ 73.2687657, 19.6660403, 0.0 ], [ 73.2686701, 19.6660539, 0.0 ], [ 73.2678097, 19.6659813, 0.0 ], [ 73.2646713, 19.6646621, 0.0 ], [ 73.2636701, 19.6643863, 0.0 ], [ 73.2632657, 19.6642749, 0.0 ], [ 73.2624296, 19.6644201, 0.0 ], [ 73.2609163, 19.6654474, 0.0 ], [ 73.2592065, 19.6668963, 0.0 ], [ 73.2588998, 19.667029, 0.0 ], [ 73.2575312, 19.6676208, 0.0 ], [ 73.2559596, 19.6680348, 0.0 ], [ 73.2549406, 19.6680693, 0.0 ], [ 73.2542152, 19.6677933, 0.0 ], [ 73.2540396, 19.6676471, 0.0 ], [ 73.2532816, 19.6670158, 0.0 ], [ 73.2530238, 19.6668011, 0.0 ], [ 73.2522353, 19.6654849, 0.0 ], [ 73.2511094, 19.6636256, 0.0 ], [ 73.2506563, 19.6629816, 0.0 ], [ 73.2502669, 19.6624281, 0.0 ], [ 73.2498888, 19.6621476, 0.0 ], [ 73.2490766, 19.6619963, 0.0 ], [ 73.2474563, 19.6621366, 0.0 ], [ 73.245566, 19.6622121, 0.0 ], [ 73.2451231, 19.6623523, 0.0 ], [ 73.2446695, 19.6629349, 0.0 ], [ 73.2444426, 19.6636686, 0.0 ], [ 73.2438786, 19.6646729, 0.0 ], [ 73.2432176, 19.6650073, 0.0 ], [ 73.241954, 19.6654105, 0.0 ], [ 73.239894, 19.6655991, 0.0 ], [ 73.2388744, 19.665574, 0.0 ], [ 73.2379232, 19.6655505, 0.0 ], [ 73.236186, 19.6653306, 0.0 ], [ 73.235085, 19.6648052, 0.0 ], [ 73.2340451, 19.6639743, 0.0 ], [ 73.2331681, 19.6628421, 0.0 ], [ 73.2329827, 19.6622322, 0.0 ], [ 73.2329695, 19.6620002, 0.0 ], [ 73.2329391, 19.6614697, 0.0 ], [ 73.2329669, 19.6606446, 0.0 ], [ 73.2330039, 19.6595426, 0.0 ], [ 73.2326575, 19.6581172, 0.0 ], [ 73.2321864, 19.6575083, 0.0 ], [ 73.2317014, 19.6573007, 0.0 ], [ 73.230787, 19.6569824, 0.0 ], [ 73.2299279, 19.6570516, 0.0 ], [ 73.2289718, 19.6573284, 0.0 ], [ 73.2284176, 19.6579788, 0.0 ], [ 73.2281363, 19.6588084, 0.0 ], [ 73.2275707, 19.6604761, 0.0 ], [ 73.2272883, 19.6607935, 0.0 ], [ 73.2267948, 19.661348, 0.0 ], [ 73.226296, 19.6617632, 0.0 ], [ 73.2256309, 19.6618324, 0.0 ], [ 73.2246055, 19.6616663, 0.0 ], [ 73.2231507, 19.6610712, 0.0 ], [ 73.2215877, 19.6603361, 0.0 ], [ 73.2213883, 19.6602936, 0.0 ], [ 73.217243, 19.659409, 0.0 ], [ 73.2159593, 19.6586595, 0.0 ], [ 73.2150508, 19.6576536, 0.0 ], [ 73.2132889, 19.6559105, 0.0 ], [ 73.2106031, 19.6540958, 0.0 ], [ 73.2098207, 19.6534986, 0.0 ], [ 73.2070804, 19.651407, 0.0 ], [ 73.2052833, 19.650263, 0.0 ], [ 73.2035454, 19.6500263, 0.0 ], [ 73.2015705, 19.6498882, 0.0 ], [ 73.1989373, 19.649551, 0.0 ], [ 73.1964094, 19.6493933, 0.0 ], [ 73.1945333, 19.6492355, 0.0 ], [ 73.1914507, 19.6481977, 0.0 ], [ 73.1906139, 19.6479228, 0.0 ], [ 73.1899753, 19.6480218, 0.0 ], [ 73.1885517, 19.6486851, 0.0 ], [ 73.1876427, 19.6490771, 0.0 ], [ 73.1859667, 19.6500487, 0.0 ], [ 73.1827319, 19.652747, 0.0 ], [ 73.1797267, 19.6555946, 0.0 ], [ 73.1789819, 19.6559277, 0.0 ], [ 73.1786151, 19.655961, 0.0 ], [ 73.178226, 19.6558833, 0.0 ], [ 73.1778703, 19.6555613, 0.0 ], [ 73.1768171, 19.654723, 0.0 ], [ 73.1765427, 19.6545046, 0.0 ], [ 73.1752199, 19.6536497, 0.0 ], [ 73.1744781, 19.6534076, 0.0 ], [ 73.1731647, 19.6529105, 0.0 ], [ 73.171951, 19.6528548, 0.0 ], [ 73.1710902, 19.652971, 0.0 ], [ 73.1697918, 19.6532851, 0.0 ], [ 73.1696937, 19.6533242, 0.0 ], [ 73.1689862, 19.6536063, 0.0 ], [ 73.1683934, 19.6536257, 0.0 ], [ 73.1680125, 19.653359, 0.0 ], [ 73.1675669, 19.6525128, 0.0 ], [ 73.1675555, 19.6523678, 0.0 ], [ 73.1677555, 19.6508051, 0.0 ], [ 73.168009, 19.6490011, 0.0 ], [ 73.1681358, 19.6472604, 0.0 ], [ 73.1680724, 19.6466116, 0.0 ], [ 73.167492, 19.6449858, 0.0 ], [ 73.1674246, 19.6448964, 0.0 ], [ 73.1668208, 19.6430933, 0.0 ], [ 73.1661123, 19.641514, 0.0 ], [ 73.1648796, 19.6375816, 0.0 ], [ 73.1640893, 19.6364652, 0.0 ], [ 73.1639932, 19.6363451, 0.0 ], [ 73.1635442, 19.6357844, 0.0 ], [ 73.1627267, 19.6350765, 0.0 ], [ 73.1622361, 19.6347497, 0.0 ], [ 73.1614731, 19.6345863, 0.0 ], [ 73.1606282, 19.6343413, 0.0 ], [ 73.1598379, 19.6340145, 0.0 ], [ 73.1589931, 19.63396, 0.0 ], [ 73.1581352, 19.634113, 0.0 ], [ 73.1559564, 19.6345016, 0.0 ], [ 73.1554386, 19.6345016, 0.0 ], [ 73.1542122, 19.6344743, 0.0 ], [ 73.1524135, 19.6344743, 0.0 ], [ 73.1511327, 19.6344471, 0.0 ], [ 73.1500426, 19.6342565, 0.0 ], [ 73.1489562, 19.6340319, 0.0 ], [ 73.1484619, 19.6339298, 0.0 ], [ 73.1473718, 19.6337664, 0.0 ], [ 73.146418, 19.6333579, 0.0 ], [ 73.1456277, 19.6327589, 0.0 ], [ 73.1442814, 19.6317472, 0.0 ], [ 73.1427825, 19.6311754, 0.0 ], [ 73.1415289, 19.6306853, 0.0 ], [ 73.1408748, 19.6306853, 0.0 ], [ 73.1395939, 19.6308759, 0.0 ], [ 73.136056, 19.6330703, 0.0 ], [ 73.1348972, 19.633789, 0.0 ], [ 73.1339978, 19.6341158, 0.0 ], [ 73.1325807, 19.634143, 0.0 ], [ 73.1322012, 19.633994, 0.0 ], [ 73.1302915, 19.6332444, 0.0 ], [ 73.1293649, 19.6328087, 0.0 ], [ 73.1284383, 19.632727, 0.0 ], [ 73.1271847, 19.6328904, 0.0 ], [ 73.1263671, 19.6331627, 0.0 ], [ 73.1240453, 19.6340023, 0.0 ], [ 73.1228189, 19.6340568, 0.0 ], [ 73.1220831, 19.6340023, 0.0 ], [ 73.1213473, 19.6337573, 0.0 ], [ 73.1196304, 19.6332671, 0.0 ], [ 73.1189491, 19.6328859, 0.0 ], [ 73.1184313, 19.6321507, 0.0 ], [ 73.1179952, 19.6314155, 0.0 ], [ 73.1155907, 19.6278964, 0.0 ], [ 73.1146369, 19.6268072, 0.0 ], [ 73.1141736, 19.6260992, 0.0 ], [ 73.1136013, 19.6250373, 0.0 ], [ 73.1132197, 19.6244382, 0.0 ], [ 73.11292, 19.6239753, 0.0 ], [ 73.1124839, 19.6235669, 0.0 ], [ 73.1114483, 19.6231584, 0.0 ], [ 73.1104127, 19.6231584, 0.0 ], [ 73.1095907, 19.6231157, 0.0 ], [ 73.1070787, 19.6229849, 0.0 ], [ 73.1053618, 19.6224131, 0.0 ], [ 73.1029636, 19.6215417, 0.0 ], [ 73.1022823, 19.6210788, 0.0 ], [ 73.1013285, 19.6202892, 0.0 ], [ 73.1005109, 19.6194723, 0.0 ], [ 73.0995025, 19.6185737, 0.0 ], [ 73.0985487, 19.6181925, 0.0 ], [ 73.0978129, 19.6180836, 0.0 ], [ 73.0970771, 19.6180836, 0.0 ], [ 73.0955677, 19.6201798, 0.0 ], [ 73.094934, 19.6204331, 0.0 ], [ 73.0943927, 19.6206494, 0.0 ], [ 73.0942051, 19.6207244, 0.0 ], [ 73.0929242, 19.6211873, 0.0 ], [ 73.0920249, 19.6215141, 0.0 ], [ 73.0910438, 19.6219225, 0.0 ], [ 73.0903625, 19.6224127, 0.0 ], [ 73.0897902, 19.623039, 0.0 ], [ 73.0895361, 19.6234295, 0.0 ], [ 73.0894359, 19.6235836, 0.0 ], [ 73.0893541, 19.6244277, 0.0 ], [ 73.0895945, 19.627103, 0.0 ], [ 73.0898398, 19.6282194, 0.0 ], [ 73.089976, 19.6290091, 0.0 ], [ 73.0898943, 19.6298804, 0.0 ], [ 73.089758, 19.6306973, 0.0 ], [ 73.0893237, 19.6314604, 0.0 ], [ 73.0883395, 19.6331901, 0.0 ], [ 73.0876855, 19.6338708, 0.0 ], [ 73.0867044, 19.6346332, 0.0 ], [ 73.0855325, 19.6351506, 0.0 ], [ 73.0853967, 19.6352075, 0.0 ], [ 73.0846877, 19.6355046, 0.0 ], [ 73.0838701, 19.6359675, 0.0 ], [ 73.0830525, 19.6364576, 0.0 ], [ 73.0824257, 19.6370567, 0.0 ], [ 73.0822622, 19.6374923, 0.0 ], [ 73.082235, 19.637928, 0.0 ], [ 73.0830468, 19.6395671, 0.0 ], [ 73.0830468, 19.640139, 0.0 ], [ 73.0827197, 19.6408469, 0.0 ], [ 73.0824745, 19.6412554, 0.0 ], [ 73.0821015, 19.6420194, 0.0 ], [ 73.0812266, 19.6415935, 0.0 ], [ 73.0805398, 19.6414188, 0.0 ], [ 73.0797008, 19.6412164, 0.0 ], [ 73.0774051, 19.640834, 0.0 ], [ 73.0762267, 19.6406811, 0.0 ], [ 73.0754145, 19.6406888, 0.0 ], [ 73.0735275, 19.6407067, 0.0 ], [ 73.0724452, 19.6406935, 0.0 ], [ 73.0717325, 19.6404958, 0.0 ], [ 73.0713629, 19.640364, 0.0 ], [ 73.0710197, 19.6399553, 0.0 ], [ 73.0708086, 19.6396389, 0.0 ], [ 73.0705842, 19.6389798, 0.0 ], [ 73.0702776, 19.6380867, 0.0 ], [ 73.070109, 19.6375956, 0.0 ], [ 73.0700157, 19.6365863, 0.0 ], [ 73.0700289, 19.635268, 0.0 ], [ 73.0699554, 19.6303742, 0.0 ], [ 73.06962, 19.6289003, 0.0 ], [ 73.0688384, 19.6274746, 0.0 ], [ 73.0685843, 19.6270714, 0.0 ], [ 73.06691, 19.6262502, 0.0 ], [ 73.0661267, 19.6259942, 0.0 ], [ 73.0652656, 19.6257127, 0.0 ], [ 73.0618657, 19.6242905, 0.0 ], [ 73.0600718, 19.6240367, 0.0 ], [ 73.0579939, 19.6242308, 0.0 ], [ 73.0557011, 19.6241406, 0.0 ], [ 73.0544506, 19.623874, 0.0 ], [ 73.0543707, 19.6238569, 0.0 ], [ 73.0520087, 19.6231104, 0.0 ], [ 73.0512875, 19.6228109, 0.0 ], [ 73.0502883, 19.622396, 0.0 ], [ 73.0497333, 19.6221656, 0.0 ], [ 73.0474891, 19.6209702, 0.0 ], [ 73.0435289, 19.6202456, 0.0 ], [ 73.0418658, 19.6196405, 0.0 ], [ 73.0382071, 19.6190235, 0.0 ], [ 73.0355766, 19.6195113, 0.0 ], [ 73.0333077, 19.6201994, 0.0 ], [ 73.0329601, 19.6202535, 0.0 ], [ 73.0308411, 19.6205833, 0.0 ], [ 73.0303045, 19.6206721, 0.0 ], [ 73.0294964, 19.6208059, 0.0 ], [ 73.0285177, 19.6215111, 0.0 ], [ 73.0267714, 19.6219134, 0.0 ], [ 73.0258167, 19.6229227, 0.0 ], [ 73.0228545, 19.6250197, 0.0 ], [ 73.02107, 19.6262083, 0.0 ], [ 73.0202137, 19.6265798, 0.0 ], [ 73.0191865, 19.6270255, 0.0 ], [ 73.0168004, 19.6281218, 0.0 ], [ 73.0142477, 19.6293104, 0.0 ], [ 73.0130009, 19.6301517, 0.0 ], [ 73.0123393, 19.6305981, 0.0 ], [ 73.0113226, 19.6312141, 0.0 ], [ 73.0093293, 19.6315641, 0.0 ], [ 73.0084548, 19.6312953, 0.0 ], [ 73.0078763, 19.6309997, 0.0 ], [ 73.0075265, 19.6306907, 0.0 ], [ 73.0072036, 19.6299382, 0.0 ], [ 73.0068268, 19.6284735, 0.0 ], [ 73.0058733, 19.6242128, 0.0 ], [ 73.0052667, 19.6228681, 0.0 ], [ 73.0049751, 19.622253, 0.0 ], [ 73.0043494, 19.621297, 0.0 ], [ 73.0035766, 19.6208374, 0.0 ], [ 73.0028406, 19.6205984, 0.0 ], [ 73.0021965, 19.6205249, 0.0 ], [ 73.0012581, 19.6211683, 0.0 ], [ 73.0008165, 19.621867, 0.0 ], [ 73.0007429, 19.6219221, 0.0 ], [ 73.0000167, 19.621879, 0.0 ], [ 72.9976794, 19.6213516, 0.0 ], [ 72.9970759, 19.6208743, 0.0 ], [ 72.9965227, 19.6205729, 0.0 ], [ 72.9960953, 19.6204473, 0.0 ], [ 72.9956427, 19.6204473, 0.0 ], [ 72.9950643, 19.6204976, 0.0 ], [ 72.9947374, 19.6207236, 0.0 ], [ 72.9943854, 19.6210753, 0.0 ], [ 72.9939606, 19.6215526, 0.0 ], [ 72.9927844, 19.6228743, 0.0 ], [ 72.9925749, 19.6231098, 0.0 ], [ 72.9921726, 19.6235619, 0.0 ], [ 72.9918206, 19.6238382, 0.0 ], [ 72.9915337, 19.6240945, 0.0 ], [ 72.9913428, 19.6242652, 0.0 ], [ 72.9908148, 19.6247926, 0.0 ], [ 72.9903408, 19.6260905, 0.0 ], [ 72.9902584, 19.6263159, 0.0 ], [ 72.990007, 19.6265922, 0.0 ], [ 72.9897599, 19.6267019, 0.0 ], [ 72.9891018, 19.626994, 0.0 ], [ 72.9882971, 19.6271196, 0.0 ], [ 72.9869141, 19.6274462, 0.0 ], [ 72.9858115, 19.6278698, 0.0 ], [ 72.9856066, 19.6279485, 0.0 ], [ 72.9846762, 19.628275, 0.0 ], [ 72.9837207, 19.6286769, 0.0 ], [ 72.9829664, 19.6290537, 0.0 ], [ 72.9827583, 19.6292237, 0.0 ], [ 72.9824132, 19.6295058, 0.0 ], [ 72.981684, 19.6302342, 0.0 ], [ 72.9805524, 19.6326956, 0.0 ], [ 72.980125, 19.6332733, 0.0 ], [ 72.9794964, 19.6338761, 0.0 ], [ 72.9788677, 19.634278, 0.0 ], [ 72.9764365, 19.6364806, 0.0 ], [ 72.9753826, 19.6374354, 0.0 ], [ 72.9727501, 19.6398201, 0.0 ], [ 72.9706509, 19.6416452, 0.0 ], [ 72.9686766, 19.6433616, 0.0 ], [ 72.9679998, 19.6445197, 0.0 ], [ 72.9672874, 19.6457386, 0.0 ], [ 72.9668504, 19.6464978, 0.0 ], [ 72.9667091, 19.6467433, 0.0 ], [ 72.9663571, 19.6472707, 0.0 ], [ 72.9658793, 19.6476726, 0.0 ], [ 72.965477, 19.647974, 0.0 ], [ 72.964939, 19.6484372, 0.0 ], [ 72.9647478, 19.6486019, 0.0 ], [ 72.9643203, 19.6490792, 0.0 ], [ 72.9638928, 19.6496317, 0.0 ], [ 72.9636651, 19.6498854, 0.0 ], [ 72.9632391, 19.6503601, 0.0 ], [ 72.9625853, 19.6510885, 0.0 ], [ 72.9587827, 19.6542284, 0.0 ], [ 72.9583586, 19.6545786, 0.0 ], [ 72.9577781, 19.6550579, 0.0 ], [ 72.957274, 19.6554741, 0.0 ], [ 72.9559413, 19.6568053, 0.0 ], [ 72.9554133, 19.6577849, 0.0 ], [ 72.9550864, 19.6582621, 0.0 ], [ 72.9547343, 19.6587896, 0.0 ], [ 72.954332, 19.6594426, 0.0 ], [ 72.9542506, 19.659613, 0.0 ], [ 72.9529421, 19.6623504, 0.0 ], [ 72.9516211, 19.6656687, 0.0 ], [ 72.951541, 19.6658701, 0.0 ], [ 72.9512323, 19.6666455, 0.0 ], [ 72.9505031, 19.668052, 0.0 ], [ 72.9498745, 19.6688306, 0.0 ], [ 72.9491237, 19.6703785, 0.0 ], [ 72.9481125, 19.6724634, 0.0 ], [ 72.9479401, 19.6729033, 0.0 ], [ 72.9457991, 19.678366, 0.0 ], [ 72.9445208, 19.6810888, 0.0 ], [ 72.9440114, 19.6821737, 0.0 ], [ 72.9434331, 19.6833793, 0.0 ], [ 72.9429302, 19.6840072, 0.0 ], [ 72.9426033, 19.6844091, 0.0 ], [ 72.9421255, 19.6848361, 0.0 ], [ 72.9417908, 19.6849865, 0.0 ], [ 72.9416226, 19.6850621, 0.0 ], [ 72.9410946, 19.6853635, 0.0 ], [ 72.9406168, 19.6857152, 0.0 ], [ 72.9401139, 19.6860668, 0.0 ], [ 72.9397116, 19.6864185, 0.0 ], [ 72.9393344, 19.6868706, 0.0 ], [ 72.9386543, 19.6872496, 0.0 ], [ 72.9384998, 19.6873357, 0.0 ], [ 72.9369408, 19.6888176, 0.0 ], [ 72.9364379, 19.6892698, 0.0 ], [ 72.9360859, 19.689546, 0.0 ], [ 72.9359601, 19.6900986, 0.0 ], [ 72.9359756, 19.6904837, 0.0 ], [ 72.9359853, 19.6907266, 0.0 ], [ 72.9360586, 19.6913366, 0.0 ], [ 72.9360607, 19.6913545, 0.0 ], [ 72.9362619, 19.6920075, 0.0 ], [ 72.9366139, 19.6928113, 0.0 ], [ 72.9368402, 19.6932383, 0.0 ], [ 72.9371168, 19.6936653, 0.0 ], [ 72.9374614, 19.694074, 0.0 ], [ 72.9375191, 19.6941425, 0.0 ], [ 72.938198, 19.6963289, 0.0 ], [ 72.9383488, 19.6972582, 0.0 ], [ 72.938374, 19.6985643, 0.0 ], [ 72.9384494, 19.6994685, 0.0 ], [ 72.9384243, 19.7002221, 0.0 ], [ 72.9380974, 19.7015533, 0.0 ], [ 72.9377202, 19.7024073, 0.0 ], [ 72.9372676, 19.7030352, 0.0 ], [ 72.9361864, 19.7042659, 0.0 ], [ 72.9350548, 19.7049441, 0.0 ], [ 72.9349831, 19.7050195, 0.0 ], [ 72.9346807, 19.7053372, 0.0 ], [ 72.9335964, 19.7064762, 0.0 ], [ 72.9330181, 19.7071544, 0.0 ], [ 72.9315793, 19.708958, 0.0 ], [ 72.9298191, 19.7128763, 0.0 ], [ 72.9274806, 19.716041, 0.0 ], [ 72.9262234, 19.7176736, 0.0 ], [ 72.923373, 19.7211384, 0.0 ], [ 72.9227997, 19.7218353, 0.0 ], [ 72.9220202, 19.7223377, 0.0 ], [ 72.9213413, 19.7227647, 0.0 ], [ 72.9205869, 19.7230912, 0.0 ], [ 72.9198326, 19.7233173, 0.0 ], [ 72.9193297, 19.7234177, 0.0 ], [ 72.9184999, 19.7234177, 0.0 ], [ 72.9180976, 19.7231917, 0.0 ], [ 72.9176198, 19.7227144, 0.0 ], [ 72.9172175, 19.7222372, 0.0 ], [ 72.9167048, 19.7218039, 0.0 ], [ 72.9165637, 19.7216846, 0.0 ], [ 72.9161362, 19.7214084, 0.0 ], [ 72.9156599, 19.7211787, 0.0 ], [ 72.915407, 19.7210567, 0.0 ], [ 72.9139624, 19.7199971, 0.0 ], [ 72.9133841, 19.719545, 0.0 ], [ 72.9123783, 19.7189171, 0.0 ], [ 72.9122007, 19.7187043, 0.0 ], [ 72.9118754, 19.7183143, 0.0 ], [ 72.9113222, 19.7178119, 0.0 ], [ 72.9108444, 19.7172845, 0.0 ], [ 72.9104421, 19.7167068, 0.0 ], [ 72.9098889, 19.7161291, 0.0 ], [ 72.9093106, 19.7155765, 0.0 ], [ 72.9057827, 19.7131787, 0.0 ], [ 72.9049278, 19.7124001, 0.0 ], [ 72.90445, 19.7116466, 0.0 ], [ 72.9041483, 19.7105917, 0.0 ], [ 72.9042499, 19.7102872, 0.0 ], [ 72.904274, 19.7102149, 0.0 ], [ 72.9045255, 19.7098633, 0.0 ], [ 72.9049781, 19.7095368, 0.0 ], [ 72.9053553, 19.7092856, 0.0 ], [ 72.9054307, 19.7088335, 0.0 ], [ 72.905481, 19.7076278, 0.0 ], [ 72.9053553, 19.7068994, 0.0 ], [ 72.9057304, 19.7049205, 0.0 ], [ 72.9060321, 19.7031623, 0.0 ], [ 72.9060824, 19.7017809, 0.0 ], [ 72.9059818, 19.7008013, 0.0 ], [ 72.9058561, 19.6995454, 0.0 ], [ 72.9055544, 19.6987417, 0.0 ], [ 72.9040346, 19.6939843, 0.0 ], [ 72.9039686, 19.693778, 0.0 ], [ 72.9033149, 19.6921203, 0.0 ], [ 72.9031192, 19.6913942, 0.0 ], [ 72.9029628, 19.6908142, 0.0 ], [ 72.9028371, 19.6895583, 0.0 ], [ 72.9021432, 19.6845768, 0.0 ], [ 72.9021063, 19.684312, 0.0 ], [ 72.9019619, 19.6835132, 0.0 ], [ 72.9017794, 19.6825036, 0.0 ], [ 72.9015319, 19.6817089, 0.0 ], [ 72.9014274, 19.6813733, 0.0 ], [ 72.9010502, 19.6803686, 0.0 ], [ 72.9006227, 19.6796653, 0.0 ], [ 72.8998295, 19.6786422, 0.0 ], [ 72.8989593, 19.6775197, 0.0 ], [ 72.8979283, 19.6762638, 0.0 ], [ 72.8972494, 19.6757364, 0.0 ], [ 72.8956904, 19.6746814, 0.0 ], [ 72.8947349, 19.6740033, 0.0 ], [ 72.8941063, 19.6732749, 0.0 ], [ 72.8932262, 19.672446, 0.0 ], [ 72.8918123, 19.6699432, 0.0 ], [ 72.8897053, 19.6668433, 0.0 ], [ 72.8867079, 19.6624332, 0.0 ], [ 72.8842143, 19.6584745, 0.0 ], [ 72.8840868, 19.6582569, 0.0 ], [ 72.8836108, 19.6574447, 0.0 ], [ 72.8829822, 19.6564652, 0.0 ], [ 72.8825799, 19.6556865, 0.0 ], [ 72.8821272, 19.6549079, 0.0 ], [ 72.8818022, 19.6545094, 0.0 ], [ 72.8815741, 19.6542297, 0.0 ], [ 72.8801789, 19.6529498, 0.0 ], [ 72.8799087, 19.6527018, 0.0 ], [ 72.8786011, 19.6517725, 0.0 ], [ 72.8782084, 19.651404, 0.0 ], [ 72.8777713, 19.6509939, 0.0 ], [ 72.8766147, 19.6503659, 0.0 ], [ 72.8757094, 19.6500645, 0.0 ], [ 72.8737984, 19.6500394, 0.0 ], [ 72.8726166, 19.6501399, 0.0 ], [ 72.8723481, 19.6501961, 0.0 ], [ 72.8710576, 19.6504664, 0.0 ], [ 72.86887, 19.6508432, 0.0 ], [ 72.8678139, 19.6509185, 0.0 ], [ 72.8669087, 19.6507929, 0.0 ], [ 72.8657269, 19.650391, 0.0 ], [ 72.8647211, 19.6498133, 0.0 ], [ 72.8639918, 19.6495371, 0.0 ], [ 72.8633632, 19.6491101, 0.0 ], [ 72.8619802, 19.6484821, 0.0 ], [ 72.8609493, 19.6479798, 0.0 ], [ 72.8604715, 19.6476533, 0.0 ], [ 72.8595915, 19.6471258, 0.0 ], [ 72.8591389, 19.6466235, 0.0 ], [ 72.8578716, 19.6450191, 0.0 ], [ 72.8575737, 19.6440907, 0.0 ], [ 72.8568461, 19.641823, 0.0 ], [ 72.8566258, 19.6411363, 0.0 ], [ 72.8563766, 19.6401656, 0.0 ], [ 72.8562979, 19.6393405, 0.0 ], [ 72.8562769, 19.6391203, 0.0 ], [ 72.8560608, 19.6373731, 0.0 ], [ 72.8560583, 19.637353, 0.0 ], [ 72.8559027, 19.6360954, 0.0 ], [ 72.8559027, 19.6349754, 0.0 ], [ 72.8559775, 19.6338056, 0.0 ], [ 72.8560273, 19.6329344, 0.0 ], [ 72.857062, 19.6288652, 0.0 ], [ 72.8578724, 19.625678, 0.0 ], [ 72.8586659, 19.6229186, 0.0 ], [ 72.8592941, 19.6207341, 0.0 ], [ 72.8603363, 19.6185803, 0.0 ], [ 72.8614619, 19.616254, 0.0 ], [ 72.8629549, 19.6120826, 0.0 ], [ 72.8635336, 19.6104658, 0.0 ], [ 72.8642299, 19.6086982, 0.0 ], [ 72.8649805, 19.6067929, 0.0 ], [ 72.8658012, 19.6038318, 0.0 ], [ 72.865851, 19.6025873, 0.0 ], [ 72.8659008, 19.6008451, 0.0 ], [ 72.8657546, 19.5996403, 0.0 ], [ 72.8657015, 19.5992023, 0.0 ], [ 72.8653753, 19.5890821, 0.0 ], [ 72.8653523, 19.5883702, 0.0 ], [ 72.8655201, 19.5871966, 0.0 ], [ 72.8657011, 19.585931, 0.0 ], [ 72.8658008, 19.5847861, 0.0 ], [ 72.8664985, 19.5827451, 0.0 ], [ 72.8669172, 19.5818445, 0.0 ], [ 72.868644, 19.5781298, 0.0 ], [ 72.8719331, 19.5720567, 0.0 ], [ 72.8736149, 19.5702017, 0.0 ], [ 72.8743252, 19.5694184, 0.0 ], [ 72.8757678, 19.5682579, 0.0 ], [ 72.8799565, 19.5648885, 0.0 ], [ 72.8834724, 19.5610947, 0.0 ], [ 72.8849852, 19.5594622, 0.0 ], [ 72.8857093, 19.5586808, 0.0 ], [ 72.8868963, 19.5573998, 0.0 ], [ 72.8880924, 19.5558068, 0.0 ], [ 72.8891887, 19.554413, 0.0 ], [ 72.8900083, 19.5532028, 0.0 ], [ 72.8903349, 19.5527205, 0.0 ], [ 72.8911821, 19.5511276, 0.0 ], [ 72.8929255, 19.5472656, 0.0 ], [ 72.893331, 19.5463673, 0.0 ], [ 72.8937798, 19.545015, 0.0 ], [ 72.8939171, 19.5446012, 0.0 ], [ 72.8945268, 19.5427636, 0.0 ], [ 72.8945767, 19.5419173, 0.0 ], [ 72.8945767, 19.540872, 0.0 ], [ 72.8945356, 19.5393961, 0.0 ], [ 72.8945268, 19.5390799, 0.0 ], [ 72.894477, 19.5378354, 0.0 ], [ 72.8946265, 19.5352967, 0.0 ], [ 72.8949434, 19.5328547, 0.0 ], [ 72.8949753, 19.5326086, 0.0 ], [ 72.8949482, 19.5317411, 0.0 ], [ 72.8949255, 19.5310156, 0.0 ], [ 72.8946265, 19.5293231, 0.0 ], [ 72.8936298, 19.5278795, 0.0 ], [ 72.8928506, 19.5271753, 0.0 ], [ 72.8925833, 19.5269337, 0.0 ], [ 72.8912377, 19.5259879, 0.0 ], [ 72.889643, 19.5255897, 0.0 ], [ 72.8877493, 19.5256395, 0.0 ], [ 72.8854071, 19.525739, 0.0 ], [ 72.8829537, 19.5261928, 0.0 ], [ 72.882716, 19.5262368, 0.0 ], [ 72.8783804, 19.5265853, 0.0 ], [ 72.8766249, 19.5262671, 0.0 ], [ 72.8731354, 19.5256347, 0.0 ], [ 72.8722795, 19.5254795, 0.0 ], [ 72.8707845, 19.5246333, 0.0 ], [ 72.866997, 19.5232394, 0.0 ], [ 72.8635086, 19.5230901, 0.0 ], [ 72.8611664, 19.5232394, 0.0 ], [ 72.8550865, 19.5239363, 0.0 ], [ 72.8524951, 19.5243346, 0.0 ], [ 72.8498041, 19.524683, 0.0 ], [ 72.8478605, 19.5247328, 0.0 ], [ 72.8458173, 19.524683, 0.0 ], [ 72.8418803, 19.5240359, 0.0 ], [ 72.8400863, 19.5233888, 0.0 ], [ 72.8384417, 19.5223932, 0.0 ], [ 72.8376351, 19.5215255, 0.0 ], [ 72.837146, 19.5209994, 0.0 ], [ 72.8355433, 19.5187048, 0.0 ], [ 72.8318404, 19.5134031, 0.0 ], [ 72.831321, 19.5128843, 0.0 ], [ 72.829548, 19.5111133, 0.0 ], [ 72.8269566, 19.5098688, 0.0 ], [ 72.820855, 19.5078269, 0.0 ], [ 72.8171391, 19.5065833, 0.0 ], [ 72.8141146, 19.5057489, 0.0 ], [ 72.8119065, 19.5051397, 0.0 ], [ 72.8081493, 19.5041619, 0.0 ], [ 72.8001398, 19.5020772, 0.0 ], [ 72.7986222, 19.5016821, 0.0 ], [ 72.7921935, 19.500587, 0.0 ], [ 72.7870981, 19.50031, 0.0 ], [ 72.7848678, 19.5001888, 0.0 ], [ 72.7750798, 19.4973797, 0.0 ], [ 72.7734352, 19.4964837, 0.0 ], [ 72.7712425, 19.4954881, 0.0 ], [ 72.7694516, 19.4945395, 0.0 ], [ 72.7646643, 19.4920035, 0.0 ], [ 72.7599798, 19.4895643, 0.0 ], [ 72.7569399, 19.487822, 0.0 ], [ 72.7482429, 19.4827842, 0.0 ] ], [ [ 73.5051238, 19.8091724, 0.0 ], [ 73.5051352, 19.8091199, 0.0 ], [ 73.5051536, 19.8090353, 0.0 ], [ 73.5056764, 19.8084575, 0.0 ], [ 73.5062405, 19.8076757, 0.0 ], [ 73.5063794, 19.8074831, 0.0 ], [ 73.50646, 19.8074335, 0.0 ], [ 73.5067384, 19.8072624, 0.0 ], [ 73.5078551, 19.8069576, 0.0 ], [ 73.5083803, 19.8070128, 0.0 ], [ 73.5084106, 19.807016, 0.0 ], [ 73.5088005, 19.8070841, 0.0 ], [ 73.5090734, 19.8073372, 0.0 ], [ 73.5091486, 19.8074835, 0.0 ], [ 73.5096387, 19.8084372, 0.0 ], [ 73.5101358, 19.8094691, 0.0 ], [ 73.5103592, 19.8096751, 0.0 ], [ 73.5111313, 19.810387, 0.0 ], [ 73.5118428, 19.8107861, 0.0 ], [ 73.5122156, 19.8112764, 0.0 ], [ 73.514264, 19.8121316, 0.0 ], [ 73.5168001, 19.8131905, 0.0 ], [ 73.5202677, 19.8154289, 0.0 ], [ 73.5227149, 19.8181514, 0.0 ], [ 73.5227149, 19.8181517, 0.0 ] ], [ [ 73.5227149, 19.8181517, 0.0 ], [ 73.5154263, 19.8201709, 0.0 ], [ 73.5137984, 19.8206219, 0.0 ], [ 73.5098649, 19.8217114, 0.0 ], [ 73.5084894, 19.8222355, 0.0 ], [ 73.5067916, 19.8223181, 0.0 ], [ 73.5066122, 19.8209961, 0.0 ], [ 73.5055489, 19.8183733, 0.0 ], [ 73.505243, 19.8176262, 0.0 ], [ 73.505155, 19.8172946, 0.0 ], [ 73.5049841, 19.8162818, 0.0 ], [ 73.5048206, 19.8157712, 0.0 ], [ 73.5045854, 19.8155363, 0.0 ], [ 73.5041457, 19.8153831, 0.0 ], [ 73.5034737, 19.8149051, 0.0 ], [ 73.5034709, 19.8149032, 0.0 ], [ 73.5031029, 19.8141475, 0.0 ], [ 73.5026277, 19.8135512, 0.0 ], [ 73.5025189, 19.8132842, 0.0 ], [ 73.5024202, 19.813042, 0.0 ], [ 73.5024259, 19.8127995, 0.0 ], [ 73.5025106, 19.8124612, 0.0 ], [ 73.5026856, 19.8122413, 0.0 ], [ 73.5029058, 19.812089, 0.0 ], [ 73.5031881, 19.81201, 0.0 ], [ 73.5037218, 19.8121438, 0.0 ], [ 73.5040344, 19.8123851, 0.0 ], [ 73.5045957, 19.8129173, 0.0 ], [ 73.5047663, 19.8130096, 0.0 ], [ 73.5050652, 19.8130295, 0.0 ], [ 73.505086, 19.8130308, 0.0 ], [ 73.5053844, 19.8128676, 0.0 ], [ 73.5059386, 19.8122289, 0.0 ], [ 73.5061886, 19.8114143, 0.0 ], [ 73.5061886, 19.8109831, 0.0 ], [ 73.5058705, 19.8105066, 0.0 ], [ 73.5054226, 19.8100435, 0.0 ], [ 73.5051676, 19.8094809, 0.0 ], [ 73.5051188, 19.8091954, 0.0 ], [ 73.5051238, 19.8091724, 0.0 ] ], [ [ 73.5486339, 19.9265748, 0.0 ], [ 73.549086, 19.9266819, 0.0 ], [ 73.5497065, 19.926733, 0.0 ], [ 73.550276, 19.9266975, 0.0 ], [ 73.5509933, 19.9266825, 0.0 ], [ 73.5514079, 19.9267528, 0.0 ], [ 73.5519403, 19.9269109, 0.0 ], [ 73.5525248, 19.9270925, 0.0 ], [ 73.5529589, 19.927145, 0.0 ], [ 73.5533975, 19.9272022, 0.0 ], [ 73.5539378, 19.9271977, 0.0 ], [ 73.554246, 19.9270764, 0.0 ], [ 73.5543231, 19.9267883, 0.0 ], [ 73.554305, 19.9264852, 0.0 ], [ 73.5542441, 19.9261631, 0.0 ], [ 73.5542437, 19.9259281, 0.0 ], [ 73.5542471, 19.9257518, 0.0 ], [ 73.5543573, 19.9254824, 0.0 ], [ 73.5545871, 19.9252151, 0.0 ], [ 73.5545466, 19.9248211, 0.0 ], [ 73.5545292, 19.9242286, 0.0 ], [ 73.554619, 19.9235157, 0.0 ], [ 73.5548091, 19.9228183, 0.0 ], [ 73.554773, 19.9221938, 0.0 ], [ 73.5546988, 19.9215784, 0.0 ], [ 73.5547526, 19.9209955, 0.0 ], [ 73.5548098, 19.9204946, 0.0 ], [ 73.5547899, 19.9200286, 0.0 ], [ 73.5547316, 19.9193178, 0.0 ], [ 73.5544706, 19.918459, 0.0 ], [ 73.5542768, 19.9178318, 0.0 ], [ 73.5540337, 19.9172898, 0.0 ], [ 73.5538425, 19.9167847, 0.0 ], [ 73.5536791, 19.9163254, 0.0 ], [ 73.5535053, 19.9161643, 0.0 ], [ 73.5533153, 19.9158446, 0.0 ], [ 73.5532617, 19.9156448, 0.0 ], [ 73.5533159, 19.9155553, 0.0 ], [ 73.5536403, 19.9153392, 0.0 ], [ 73.5538253, 19.9151615, 0.0 ], [ 73.5540157, 19.9149477, 0.0 ], [ 73.5540161, 19.9146765, 0.0 ], [ 73.5539035, 19.9140553, 0.0 ], [ 73.5537323, 19.9132521, 0.0 ], [ 73.5536358, 19.9125318, 0.0 ], [ 73.5534668, 19.912122, 0.0 ], [ 73.5532956, 19.9118163, 0.0 ], [ 73.5530863, 19.9115143, 0.0 ], [ 73.5529933, 19.911124, 0.0 ], [ 73.5529201, 19.9106933, 0.0 ], [ 73.5527872, 19.9103881, 0.0 ], [ 73.5526329, 19.9102092, 0.0 ], [ 73.5524795, 19.9099761, 0.0 ], [ 73.5522955, 19.9098509, 0.0 ], [ 73.5519363, 19.90989, 0.0 ], [ 73.5516311, 19.9098532, 0.0 ], [ 73.5514481, 19.9096739, 0.0 ], [ 73.5511987, 19.9094617, 0.0 ], [ 73.550914, 19.9093529, 0.0 ], [ 73.5507429, 19.9090471, 0.0 ], [ 73.5506475, 19.9087878, 0.0 ], [ 73.550635, 19.9084305, 0.0 ], [ 73.5505457, 19.9080989, 0.0 ], [ 73.5504464, 19.9077853, 0.0 ], [ 73.5503173, 19.907539, 0.0 ], [ 73.5502544, 19.9073254, 0.0 ], [ 73.5503707, 19.9069839, 0.0 ], [ 73.5504948, 19.9067418, 0.0 ], [ 73.5505752, 19.9065352, 0.0 ], [ 73.5505555, 19.9063134, 0.0 ], [ 73.5504649, 19.9060497, 0.0 ], [ 73.5504341, 19.9059089, 0.0 ], [ 73.550448, 19.9056787, 0.0 ], [ 73.5505359, 19.905323, 0.0 ], [ 73.5504217, 19.9050453, 0.0 ], [ 73.549753, 19.9045187, 0.0 ], [ 73.5494938, 19.9043199, 0.0 ], [ 73.5492697, 19.9040358, 0.0 ], [ 73.5492368, 19.9035018, 0.0 ], [ 73.5491972, 19.9030671, 0.0 ], [ 73.549163, 19.902854, 0.0 ], [ 73.5488298, 19.9025274, 0.0 ], [ 73.5486481, 19.9022802, 0.0 ], [ 73.5484961, 19.9019793, 0.0 ], [ 73.5484637, 19.9016668, 0.0 ], [ 73.5484984, 19.9010933, 0.0 ], [ 73.5484371, 19.9005452, 0.0 ], [ 73.5482543, 19.9001035, 0.0 ], [ 73.5480421, 19.8999463, 0.0 ], [ 73.5476345, 19.9000208, 0.0 ], [ 73.5474838, 19.8999052, 0.0 ], [ 73.5473909, 19.899759, 0.0 ], [ 73.547042, 19.8995044, 0.0 ], [ 73.5466227, 19.8989323, 0.0 ], [ 73.5463301, 19.8987329, 0.0 ], [ 73.5461375, 19.8985579, 0.0 ], [ 73.5458654, 19.8982865, 0.0 ], [ 73.5456816, 19.8978992, 0.0 ], [ 73.5455462, 19.8974719, 0.0 ], [ 73.5454846, 19.8969373, 0.0 ], [ 73.5452866, 19.8965407, 0.0 ], [ 73.5449262, 19.8961368, 0.0 ], [ 73.5444689, 19.895808, 0.0 ], [ 73.5442283, 19.8956368, 0.0 ], [ 73.5438053, 19.8952634, 0.0 ], [ 73.5435329, 19.8950101, 0.0 ], [ 73.5430293, 19.8948479, 0.0 ], [ 73.5425483, 19.8947584, 0.0 ], [ 73.5421093, 19.8947193, 0.0 ], [ 73.5417863, 19.8946189, 0.0 ], [ 73.5415426, 19.8943616, 0.0 ], [ 73.5414405, 19.8942017, 0.0 ], [ 73.5412817, 19.8939571, 0.0 ], [ 73.5412093, 19.8936404, 0.0 ], [ 73.5411082, 19.8931023, 0.0 ], [ 73.5411264, 19.8928128, 0.0 ], [ 73.5411897, 19.8924781, 0.0 ], [ 73.5412531, 19.8922519, 0.0 ], [ 73.5411445, 19.8918449, 0.0 ], [ 73.5410539, 19.8918087, 0.0 ], [ 73.5408819, 19.8917996, 0.0 ], [ 73.540737, 19.8917906, 0.0 ], [ 73.5405468, 19.8917454, 0.0 ], [ 73.5402223, 19.8916494, 0.0 ], [ 73.5401756, 19.8915735, 0.0 ], [ 73.5402118, 19.8914378, 0.0 ], [ 73.5404291, 19.8911755, 0.0 ], [ 73.540972, 19.8905566, 0.0 ], [ 73.5409992, 19.8904119, 0.0 ], [ 73.5410716, 19.8900681, 0.0 ], [ 73.5410535, 19.8897606, 0.0 ], [ 73.5410173, 19.8894801, 0.0 ], [ 73.5407003, 19.8892359, 0.0 ], [ 73.5397165, 19.8885801, 0.0 ], [ 73.5395746, 19.8883611, 0.0 ], [ 73.5395656, 19.888153, 0.0 ], [ 73.539629, 19.8879811, 0.0 ], [ 73.5397376, 19.8877731, 0.0 ], [ 73.539792, 19.8875922, 0.0 ], [ 73.5398466, 19.8872577, 0.0 ], [ 73.5394589, 19.8870387, 0.0 ], [ 73.5388202, 19.886951, 0.0 ], [ 73.5379748, 19.8869231, 0.0 ], [ 73.5372466, 19.8867662, 0.0 ], [ 73.536658, 19.8865527, 0.0 ], [ 73.5363755, 19.8863309, 0.0 ], [ 73.5362221, 19.8861023, 0.0 ], [ 73.5361915, 19.8856994, 0.0 ], [ 73.5362763, 19.8852578, 0.0 ], [ 73.5364019, 19.8846858, 0.0 ], [ 73.5364778, 19.8842079, 0.0 ], [ 73.5365101, 19.8837653, 0.0 ], [ 73.5364925, 19.8836836, 0.0 ], [ 73.5363419, 19.8833104, 0.0 ], [ 73.5360535, 19.8828941, 0.0 ], [ 73.535743, 19.8826357, 0.0 ], [ 73.5355755, 19.8823777, 0.0 ], [ 73.5353765, 19.8820517, 0.0 ], [ 73.5353041, 19.8818621, 0.0 ], [ 73.5352834, 19.8818183, 0.0 ], [ 73.5352228, 19.8816905, 0.0 ], [ 73.5352137, 19.8814557, 0.0 ], [ 73.5352228, 19.8809409, 0.0 ], [ 73.5350913, 19.8803845, 0.0 ], [ 73.5350329, 19.8801371, 0.0 ], [ 73.5350329, 19.879812, 0.0 ], [ 73.5350583, 19.8797296, 0.0 ], [ 73.5351052, 19.8795772, 0.0 ], [ 73.5352943, 19.8793199, 0.0 ], [ 73.5355023, 19.8789316, 0.0 ], [ 73.5355064, 19.8789193, 0.0 ], [ 73.5356379, 19.8785252, 0.0 ], [ 73.535656, 19.8781097, 0.0 ], [ 73.535647, 19.8779652, 0.0 ], [ 73.535448, 19.8778478, 0.0 ], [ 73.5350222, 19.8779075, 0.0 ], [ 73.5337924, 19.8780882, 0.0 ], [ 73.533476, 19.8780882, 0.0 ], [ 73.5333856, 19.8780882, 0.0 ], [ 73.5332228, 19.8779708, 0.0 ], [ 73.5332047, 19.8779075, 0.0 ], [ 73.5331595, 19.8776998, 0.0 ], [ 73.5332047, 19.8772754, 0.0 ], [ 73.5333042, 19.8766884, 0.0 ], [ 73.5333132, 19.8763723, 0.0 ], [ 73.533096, 19.8758447, 0.0 ], [ 73.5329062, 19.875348, 0.0 ], [ 73.5329062, 19.8753338, 0.0 ], [ 73.5329062, 19.8751835, 0.0 ], [ 73.5329062, 19.8749597, 0.0 ], [ 73.5329695, 19.87477, 0.0 ], [ 73.5333583, 19.8742733, 0.0 ], [ 73.5340192, 19.8734828, 0.0 ], [ 73.534028, 19.8734722, 0.0 ], [ 73.5341727, 19.8732735, 0.0 ], [ 73.5341863, 19.8731955, 0.0 ], [ 73.5342089, 19.8730658, 0.0 ], [ 73.5341004, 19.8727949, 0.0 ], [ 73.5338834, 19.8724788, 0.0 ], [ 73.5327079, 19.8715576, 0.0 ], [ 73.5326961, 19.8715535, 0.0 ], [ 73.5322467, 19.8713951, 0.0 ], [ 73.5313335, 19.8712777, 0.0 ], [ 73.53083, 19.8712234, 0.0 ], [ 73.5303722, 19.8711742, 0.0 ], [ 73.5302095, 19.8710929, 0.0 ], [ 73.5300377, 19.8709574, 0.0 ], [ 73.5300015, 19.8708761, 0.0 ], [ 73.5299834, 19.8706865, 0.0 ], [ 73.5299834, 19.8704788, 0.0 ], [ 73.5300377, 19.8703433, 0.0 ], [ 73.5304265, 19.8697924, 0.0 ], [ 73.5306706, 19.8694312, 0.0 ], [ 73.5307429, 19.8691873, 0.0 ], [ 73.5306254, 19.8688351, 0.0 ], [ 73.5305531, 19.8685913, 0.0 ], [ 73.530336, 19.8683474, 0.0 ], [ 73.5296036, 19.86823, 0.0 ], [ 73.52917, 19.8682012, 0.0 ], [ 73.5289255, 19.8681849, 0.0 ], [ 73.5284734, 19.8684468, 0.0 ], [ 73.5282112, 19.8689706, 0.0 ], [ 73.5278856, 19.8694582, 0.0 ], [ 73.5273431, 19.869666, 0.0 ], [ 73.5269814, 19.8696569, 0.0 ], [ 73.5262949, 19.8694682, 0.0 ], [ 73.5260516, 19.8693341, 0.0 ], [ 73.5258029, 19.869197, 0.0 ], [ 73.5256106, 19.8690615, 0.0 ], [ 73.5254071, 19.8688129, 0.0 ], [ 73.5252713, 19.8685927, 0.0 ], [ 73.5251865, 19.8682538, 0.0 ], [ 73.5252487, 19.8679318, 0.0 ], [ 73.52529, 19.8676449, 0.0 ], [ 73.5253289, 19.8675318, 0.0 ], [ 73.5254032, 19.8674294, 0.0 ], [ 73.5255376, 19.8673481, 0.0 ], [ 73.5257993, 19.8672633, 0.0 ], [ 73.5260823, 19.8670373, 0.0 ], [ 73.5261955, 19.8668783, 0.0 ], [ 73.5263937, 19.8663779, 0.0 ], [ 73.5265557, 19.8656483, 0.0 ], [ 73.5266847, 19.8641405, 0.0 ], [ 73.5267645, 19.8632105, 0.0 ], [ 73.5267405, 19.8619578, 0.0 ], [ 73.5267114, 19.8609763, 0.0 ], [ 73.5267326, 19.8608681, 0.0 ], [ 73.5267225, 19.8603886, 0.0 ], [ 73.5254486, 19.8603058, 0.0 ], [ 73.5236169, 19.8605439, 0.0 ], [ 73.5235444, 19.8605897, 0.0 ], [ 73.5230472, 19.8609035, 0.0 ], [ 73.5211412, 19.8614377, 0.0 ], [ 73.5205104, 19.8614919, 0.0 ], [ 73.5195793, 19.8615721, 0.0 ], [ 73.5188396, 19.8616357, 0.0 ], [ 73.5175135, 19.8616509, 0.0 ], [ 73.5168428, 19.8613615, 0.0 ], [ 73.515974, 19.8603058, 0.0 ], [ 73.5148793, 19.8579651, 0.0 ], [ 73.515104, 19.8575216, 0.0 ], [ 73.5154047, 19.8550167, 0.0 ], [ 73.515971, 19.8540505, 0.0 ], [ 73.5170057, 19.8522854, 0.0 ], [ 73.5172382, 19.8518887, 0.0 ], [ 73.5184277, 19.8511669, 0.0 ], [ 73.5186525, 19.8505161, 0.0 ], [ 73.5187251, 19.8503058, 0.0 ], [ 73.5169408, 19.8483219, 0.0 ], [ 73.5154114, 19.8469206, 0.0 ], [ 73.5154114, 19.8453495, 0.0 ], [ 73.5168983, 19.8445002, 0.0 ], [ 73.5187594, 19.8428359, 0.0 ], [ 73.5193199, 19.8423346, 0.0 ], [ 73.5194296, 19.8421884, 0.0 ], [ 73.5217729, 19.8390656, 0.0 ], [ 73.5223787, 19.8382582, 0.0 ], [ 73.5224781, 19.8370121, 0.0 ], [ 73.522825, 19.8326592, 0.0 ], [ 73.5229454, 19.8286257, 0.0 ], [ 73.5229932, 19.8238968, 0.0 ], [ 73.5230057, 19.8226657, 0.0 ], [ 73.5227149, 19.8181517, 0.0 ] ] ] } }
]
}
